{"type":"FeatureCollection","features":[{"type":"Feature","properties":{"id":"IRCA_67862.0","kind":"roadworks","title_en":"Road works","description_en":"","description_is":"Vegna framkvæmda við „Hringvegur (1) um Ölfusá“ verða settar þrengingar á veginn og umferðarhraði lækkaður við hringtorgið Hringvegur 1 / Biskupstungnabraut og á Hringveg 1 á móts við Uppsali. Vegfarendur eru beðnir að aka með gát um vinnusvæðið og virða merkingar. Áætlað er að framkvæmdum ljúki haustið 2028.","started_at":"2026-03-09T12:27:47Z","ends_at":"2029-03-09T13:27:00Z","updated_at":"2026-03-09T12:27:47Z"},"geometry":{"type":"Point","coordinates":[-20.964005,63.939644]}},{"type":"Feature","properties":{"id":"IRCA_50008.0","kind":"roadworks","title_en":"Road works","description_en":"Work is underway on the new construction of the road on a 1.9 km section between Rjúpnavegur and Breiðholtsbraut. In addition, bridges, footpaths and underpasses will be built.","description_is":"Unnið er að nýbyggingu vegarins á um 1,9 km kafla milli Rjúpnavegar og Breiðholtsbrautar. Auk þess verða byggð brúarmannvirki, gangstígar, undirgöng og stofnæð hitaveitu.","started_at":"2026-08-30T19:31:33Z","ends_at":"2026-10-31T16:00:00Z","updated_at":"2026-08-30T19:31:33Z"},"geometry":{"type":"Point","coordinates":[-21.838623,64.08898]}},{"type":"Feature","properties":{"id":"IRCA_73247.0","kind":"closure","title_en":"Road closed","description_en":"Due to repairs on the bridge over Hoffellsá, the bridge on Hornafjarðarvegur (987), the old Ring Road, will be closed to all traffic from 1:30 PM on Monday, October 5, until 12:00 AM (midnight) on Thursday, October 8.\nIt will not be possible to drive across the bridge while the closure is in effect. Travelers are asked to use Road 1 across Hornafjarðarfljót during the closure period.\nThere will be no toll charges on Road 1 around Hornafjörður while the Hoffellsá bridge is closed.\"","description_is":"Vegna viðgerða á brú yfir Hoffellsá verður brúin á Hornafjarðarvegi (987), gamla Hringveginum, lokuð allri umferð frá kl. 13:30 mánudaginn 5. október til kl. 00:00 fimmtudaginn 8. október. \n \nEkki verður unnt að aka um brúna á meðan lokun stendur yfir. Vegfarendur eru beðnir um að nota Hringveg 1 um Hornafjarðarfljót á lokunartímanum.\nEngin gjaldtaka verður á Hringvegi 1 um Hornafjörð á meðan Hoffellsárbrú er lokuð.","started_at":"2026-10-05T14:28:32Z","ends_at":"2026-10-08T00:00:00Z","updated_at":"2026-10-05T14:28:32Z"},"geometry":{"type":"Point","coordinates":[-15.296932,64.37292]}},{"type":"Feature","properties":{"id":"IRCA_70989.0","kind":"warning","title_en":"Road warning","description_en":"There is a new driving route along the Hornafjörður River.","description_is":"Breytt akstursleið um Hornafjarðarfljót.","started_at":"2026-08-22T19:13:03Z","ends_at":"2026-12-31T20:08:00Z","updated_at":"2026-08-22T19:13:03Z"},"geometry":{"type":"Point","coordinates":[-15.168073,64.28954]}},{"type":"Feature","properties":{"id":"IRCA_50007.0","kind":"roadworks","title_en":"Road works","description_en":"Arnarnesvegur has been reopened to traffic from Breiðholtsbraut via the new bridge over Breiðholtsbraut to Vatnsendavegur. The intersection of Vatnsendavegur and Breiðholtsbraut is closed due to construction. Drivers are advised to drive to and from Vatnsendahvarfi via Vatnsendavegur, a new roundabout at Arnarnesvegur and a new intersection at Breiðholtsbraut. Road users are asked to respect the signs and show consideration","description_is":"Búið er að opna fyrir umferð á Arnarnesveg frá Breiðholtsbraut um nýju brúna yfir Breiðholtsbraut að Vatnsendavegi. Vegamót Vatnsendavegar og Breiðholtsbrautar eru lokuð vegna framkvæmda. Ökumönnum er bent á að aka til og frá Vatnsendahvarfi í gegnum Vatnsendaveg, nýtt hringtorg við Arnarnesveg og ný vegamót við Breiðholtsbraut. Vegfarendur eru beðnir um að virða merkingar og sýna tillitssemi","started_at":"2026-08-24T15:50:53Z","ends_at":"2026-10-31T16:00:00Z","updated_at":"2026-08-24T15:50:53Z"},"geometry":{"type":"Point","coordinates":[-21.817074,64.09822]}},{"type":"Feature","properties":{"id":"IRCA_73124.0","kind":"roadworks","title_en":"Road works","description_en":"","description_is":"","started_at":"2026-10-01T10:39:51Z","ends_at":"2026-10-17T18:00:00Z","updated_at":"2026-10-01T10:39:51Z"},"geometry":{"type":"Point","coordinates":[-21.234194,64.012535]}},{"type":"Feature","properties":{"id":"IRCA_73043.0","kind":"roadworks","title_en":"Road works","description_en":"","description_is":"Endurbygging á vegi","started_at":"2026-09-28T11:47:33Z","ends_at":"2026-10-31T12:46:00Z","updated_at":"2026-09-28T11:47:33Z"},"geometry":{"type":"Point","coordinates":[-22.266764,64.78076]}},{"type":"Feature","properties":{"id":"IRCA_73044.0","kind":"roadworks","title_en":"Road works","description_en":"","description_is":"Endurbygging á vegi","started_at":"2026-09-28T11:48:24Z","ends_at":"2026-10-31T12:47:00Z","updated_at":"2026-09-28T11:48:24Z"},"geometry":{"type":"Point","coordinates":[-22.234076,64.74769]}},{"type":"Feature","properties":{"id":"IRCA_73141.0","kind":"warning","title_en":"Road warning","description_en":"","description_is":"","started_at":"2026-10-01T14:34:50Z","ends_at":"2026-10-08T15:34:00Z","updated_at":"2026-10-01T14:34:50Z"},"geometry":{"type":"Point","coordinates":[-20.650911,65.59085]}},{"type":"Feature","properties":{"id":"IRCA_72323.0","kind":"roadworks","title_en":"Road works","description_en":"","description_is":"Borgarfjarðarbrú: Verið er að vinna undir brúnni, vegfarendur eru vinsamlegast beðnir um að taka tillit til hraðatakmarkana á vinnusvæði.","started_at":"2026-08-22T19:48:06Z","ends_at":"2026-10-31T21:15:00Z","updated_at":"2026-08-22T19:48:06Z"},"geometry":{"type":"Point","coordinates":[-21.89301,64.533905]}},{"type":"Feature","properties":{"id":"IRCA_72744.0","kind":"roadworks","title_en":"Road works","description_en":"Roadworks are underway on the Hringvegur (Route 1) bridge over the Þjórsá river, located between Selfoss and Hella.The speed limit in the construction zone has been reduced to 30 km/h. Traffic is currently regulated by traffic lights.Road users are asked to drive carefully and respect all posted signs and signals in the area.","description_is":"Framkvæmdir standa yfir á brúnni yfir Þjórsá á Hringveginum milli Selfoss og Hellu\n\nHámarkshraði á vinnusvæðinu hefur verið lækkaður í 30 km/klst. Umferð er stýrt með umferðarljósum. \nVegfarendur eru beðnir um að aka varlega og virða merkingar á svæðinu.","started_at":"2026-09-14T11:13:36Z","ends_at":"2026-10-18T12:11:00Z","updated_at":"2026-09-14T11:13:36Z"},"geometry":{"type":"Point","coordinates":[-20.665243,63.92993]}},{"type":"Feature","properties":{"id":"IRCA_67861.0","kind":"roadworks","title_en":"Road works","description_en":"","description_is":"Vegna framkvæmda við „Hringvegur (1) um Ölfusá“ verða settar þrengingar á veginn og umferðarhraði lækkaður við hringtorgið Hringvegur 1 / Biskupstungnabraut og á Hringveg 1 á móts við Uppsali. Vegfarendur eru beðnir að aka með gát um vinnusvæðið og virða merkingar. Áætlað er að framkvæmdum ljúki haustið 2028.","started_at":"2026-03-09T12:26:15Z","ends_at":"2029-03-09T23:45:00Z","updated_at":"2026-03-09T12:26:15Z"},"geometry":{"type":"Point","coordinates":[-21.02072,63.952282]}},{"type":"Feature","properties":{"id":"IRCA_73142.0","kind":"road_surface","title_en":"Road surface warning","description_en":"","description_is":"","started_at":"2026-10-01T15:22:53Z","ends_at":"2027-10-01T16:22:00Z","updated_at":"2026-10-01T15:22:53Z"},"geometry":{"type":"Point","coordinates":[-19.945189,64.10564]}},{"type":"Feature","properties":{"id":"IRCA_56022.0","kind":"warning","title_en":"Road warning","description_en":"","description_is":"Heildarþungi vörubifreiða er takmarkaður við 8 tonn í gegnum þjóðgarðinn.","started_at":"2025-07-08T10:08:25Z","ends_at":"2029-07-31T13:42:00Z","updated_at":"2025-07-08T10:08:25Z"},"geometry":{"type":"Point","coordinates":[-21.035221,64.25841]}},{"type":"Feature","properties":{"id":"IRCA_73265.0","kind":"road_surface","title_en":"Road surface warning","description_en":"flying gravel. Drive saftly","description_is":"Steinkast. Akið varlega.","started_at":"2026-10-06T12:27:22Z","ends_at":"2026-10-07T16:00:00Z","updated_at":"2026-10-06T12:27:22Z"},"geometry":{"type":"Point","coordinates":[-20.715137,64.1577]}},{"type":"Feature","properties":{"id":"IRCA_72823.0","kind":"roadworks","title_en":"Road works","description_en":"","description_is":"Unnið að lagningu strengja meðfram vegunum, akið varlega","started_at":"2026-09-18T10:58:06Z","ends_at":"2026-10-23T11:56:00Z","updated_at":"2026-09-18T10:58:06Z"},"geometry":{"type":"Point","coordinates":[-21.363607,63.91412]}},{"type":"Feature","properties":{"id":"IRCA_69827.0","kind":"road_surface","title_en":"Road surface warning","description_en":"","description_is":"","started_at":"2026-05-11T14:46:31Z","ends_at":"2026-10-11T15:46:00Z","updated_at":"2026-05-11T14:46:31Z"},"geometry":{"type":"Point","coordinates":[-21.47285,64.117424]}},{"type":"Feature","properties":{"id":"IRCA_69899.0","kind":"road_surface","title_en":"Road surface warning","description_en":"","description_is":"","started_at":"2026-05-13T16:59:41Z","ends_at":"2026-10-13T17:59:00Z","updated_at":"2026-05-13T16:59:41Z"},"geometry":{"type":"Point","coordinates":[-21.515835,64.11379]}},{"type":"Feature","properties":{"id":"IRCA_72200.0","kind":"warning","title_en":"Road warning","description_en":"","description_is":"Holur","started_at":"2026-08-17T08:30:15Z","ends_at":"2026-10-30T09:29:00Z","updated_at":"2026-08-17T08:30:15Z"},"geometry":{"type":"Point","coordinates":[-21.78318,64.360306]}},{"type":"Feature","properties":{"id":"IRCA_72671.0","kind":"warning","title_en":"Road warning","description_en":"","description_is":"Frá 10. september til 31. október verður unnið að endurbótum á brú yfir Gljúfurá á Hringvegi 1 milli Borgarness og Bifröst.\nHámarkshraði á vinnusvæðinu hefur verður lækkaður í 30 km/klst. Umferð verður stýrt með umferðarljósum. \nVegfarendur eru beðnir um að aka varlega og virða merkingar á svæðinu.","started_at":"2026-09-09T14:19:05Z","ends_at":"2026-10-31T16:00:00Z","updated_at":"2026-09-09T14:19:05Z"},"geometry":{"type":"Point","coordinates":[-21.680435,64.67057]}},{"type":"Feature","properties":{"id":"IRCA_50347.0","kind":"warning","title_en":"Road warning","description_en":"Max 6 ton total vehicle weight on the bridge Hvítárvallarbú.","description_is":"Heildarþungi takmarkaður við 6 tonn á Hvítárvallarbrú.","started_at":"2024-05-02T15:27:51Z","ends_at":"2049-09-11T13:52:00Z","updated_at":"2024-05-02T15:27:51Z"},"geometry":{"type":"Point","coordinates":[-21.7101,64.60365]}},{"type":"Feature","properties":{"id":"IRCA_73240.0","kind":"warning","title_en":"Road warning","description_en":"","description_is":"","started_at":"2026-10-05T08:50:59Z","ends_at":"2026-10-09T09:50:00Z","updated_at":"2026-10-05T08:50:59Z"},"geometry":{"type":"Point","coordinates":[-21.676233,64.54542]}},{"type":"Feature","properties":{"id":"IRCA_73242.0","kind":"warning","title_en":"Road warning","description_en":"","description_is":"","started_at":"2026-10-05T08:52:02Z","ends_at":"2026-10-09T09:51:00Z","updated_at":"2026-10-05T08:52:02Z"},"geometry":{"type":"Point","coordinates":[-21.97465,64.58348]}},{"type":"Feature","properties":{"id":"IRCA_73042.0","kind":"roadworks","title_en":"Road works","description_en":"","description_is":"Endurbygging á vegi","started_at":"2026-09-28T11:46:25Z","ends_at":"2026-10-31T12:45:00Z","updated_at":"2026-09-28T11:46:25Z"},"geometry":{"type":"Point","coordinates":[-22.755936,65.014786]}},{"type":"Feature","properties":{"id":"IRCA_73045.0","kind":"roadworks","title_en":"Road works","description_en":"","description_is":"Endurbygging á vegi","started_at":"2026-09-28T11:49:30Z","ends_at":"2026-10-31T12:48:00Z","updated_at":"2026-09-28T11:49:30Z"},"geometry":{"type":"Point","coordinates":[-22.755257,65.038055]}},{"type":"Feature","properties":{"id":"IRCA_72953.0","kind":"warning","title_en":"Road warning","description_en":"","description_is":"Vegurinn hefur holast mjög mikið í rigningunni, akið varlega og dragið úr ökuhraða!","started_at":"2026-09-23T13:45:41Z","ends_at":"2026-10-30T14:45:00Z","updated_at":"2026-09-23T13:45:41Z"},"geometry":{"type":"Point","coordinates":[-22.222185,64.89586]}},{"type":"Feature","properties":{"id":"IRCA_72954.0","kind":"warning","title_en":"Road warning","description_en":"Many potholes have formed in the road following the recent rain, drive carefully and reduce your speed!","description_is":"Mikið af holum hafa myndast í veginum eftir rigningu seinustu daga, akið varlega og dragið úr ökuhraða!","started_at":"2026-10-03T21:13:07Z","ends_at":"2026-10-30T14:45:00Z","updated_at":"2026-10-03T21:13:07Z"},"geometry":{"type":"Point","coordinates":[-22.159365,65.025665]}},{"type":"Feature","properties":{"id":"IRCA_73221.0","kind":"warning","title_en":"Road warning","description_en":"","description_is":"Slæmar holur í vegi á kaflanum frá Fellsenda að Gröf.","started_at":"2026-10-04T11:33:56Z","ends_at":"2026-10-11T12:32:00Z","updated_at":"2026-10-04T11:33:56Z"},"geometry":{"type":"Point","coordinates":[-21.547222,64.96611]}},{"type":"Feature","properties":{"id":"IRCA_73200.0","kind":"warning","title_en":"Road warning","description_en":"","description_is":"","started_at":"2026-10-03T18:21:34Z","ends_at":"2026-10-17T19:21:00Z","updated_at":"2026-10-03T18:21:34Z"},"geometry":{"type":"Point","coordinates":[-21.660849,65.023895]}},{"type":"Feature","properties":{"id":"IRCA_72955.0","kind":"warning","title_en":"Road warning","description_en":"","description_is":"Vegurinn hefur holast mjög mikið í rigningunni, akið varlega og dragið úr ökuhraða!","started_at":"2026-09-23T13:46:30Z","ends_at":"2026-10-30T14:46:00Z","updated_at":"2026-09-23T13:46:30Z"},"geometry":{"type":"Point","coordinates":[-21.671476,65.05543]}},{"type":"Feature","properties":{"id":"IRCA_72956.0","kind":"warning","title_en":"Road warning","description_en":"","description_is":"Vegurinn hefur holast mjög mikið í rigningunni, akið varlega og dragið úr ökuhraða!","started_at":"2026-09-23T13:47:01Z","ends_at":"2026-10-30T14:46:00Z","updated_at":"2026-09-23T13:47:01Z"},"geometry":{"type":"Point","coordinates":[-21.903095,65.381836]}},{"type":"Feature","properties":{"id":"IRCA_69352.0","kind":"roadworks","title_en":"Road works","description_en":"Reconstruction of the road over Dynjandisheiði, phase 3. Work area 7.5 km","description_is":"Endurbygging vegar um Dynjandisheiði áfangi 3. Vinnusvæði 7,5 km","started_at":"2026-04-16T08:13:27Z","ends_at":"2026-10-14T09:12:00Z","updated_at":"2026-04-16T08:13:27Z"},"geometry":{"type":"Point","coordinates":[-23.166235,65.739716]}},{"type":"Feature","properties":{"id":"IRCA_69366.0","kind":"road_surface","title_en":"Road surface warning","description_en":"The road through the worksite is rough. Drive with caution.","description_is":"Vegurinn um vinnusvæðið er seinfarinn. Akið með varúð.","started_at":"2026-04-30T15:28:47Z","ends_at":"2026-10-16T12:27:00Z","updated_at":"2026-04-30T15:28:47Z"},"geometry":{"type":"Point","coordinates":[-23.167671,65.751526]}},{"type":"Feature","properties":{"id":"IRCA_63711.0","kind":"roadworks","title_en":"Road works","description_en":"Reconstruction of the road over Dynjandisheiði, phase 3. Work area 7.5 km","description_is":"Endurbygging vegar um Dynjandisheiði áfangi 3. Vinnusvæði 7,5 km","started_at":"2026-04-16T08:13:20Z","ends_at":"2026-10-30T11:44:00Z","updated_at":"2026-04-16T08:13:20Z"},"geometry":{"type":"Point","coordinates":[-23.210741,65.748055]}},{"type":"Feature","properties":{"id":"IRCA_73140.0","kind":"warning","title_en":"Road warning","description_en":"","description_is":"","started_at":"2026-10-01T14:34:29Z","ends_at":"2026-10-08T15:34:00Z","updated_at":"2026-10-01T14:34:29Z"},"geometry":{"type":"Point","coordinates":[-20.914795,65.588165]}},{"type":"Feature","properties":{"id":"IRCA_73260.0","kind":"road_surface","title_en":"Road surface warning","description_en":"","description_is":"","started_at":"2026-10-06T08:41:09Z","ends_at":"2026-10-31T09:40:00Z","updated_at":"2026-10-06T08:41:09Z"},"geometry":{"type":"Point","coordinates":[-21.428226,65.985115]}},{"type":"Feature","properties":{"id":"IRCA_73021.0","kind":"road_surface","title_en":"Road surface warning","description_en":"","description_is":"","started_at":"2026-09-27T16:23:22Z","ends_at":"2026-10-09T17:23:00Z","updated_at":"2026-09-27T16:23:22Z"},"geometry":{"type":"Point","coordinates":[-20.696873,65.402855]}},{"type":"Feature","properties":{"id":"IRCA_73243.0","kind":"roadworks","title_en":"Road works","description_en":"","description_is":"Unnið í vegfláum, sýnið tillitssemi og virðið merkingar.","started_at":"2026-10-05T09:39:31Z","ends_at":"2026-10-09T15:00:00Z","updated_at":"2026-10-05T09:39:31Z"},"geometry":{"type":"Point","coordinates":[-18.354095,65.924164]}},{"type":"Feature","properties":{"id":"IRCA_73244.0","kind":"roadworks","title_en":"Road works","description_en":"","description_is":"Unnið í vegfláum, sýnið tillitssemi og virðið merkingar.","started_at":"2026-10-05T09:40:17Z","ends_at":"2026-10-09T15:00:00Z","updated_at":"2026-10-05T09:40:17Z"},"geometry":{"type":"Point","coordinates":[-16.97423,65.66047]}},{"type":"Feature","properties":{"id":"IRCA_50226.0","kind":"warning","title_en":"Road warning","description_en":"Max 12 ton total vehicle weight on bridges over Skjálfandafljót in Bárðardalur.","description_is":"Heildarþungi ökutækis er takmarkaður við 12 tonn á brúm yfir Skjálfandafljót í Bárðardal.","started_at":"2023-09-06T14:08:47Z","ends_at":"2048-09-06T09:48:00Z","updated_at":"2023-09-06T14:08:47Z"},"geometry":{"type":"Point","coordinates":[-17.44684,65.49491]}},{"type":"Feature","properties":{"id":"IRCA_72745.0","kind":"closure","title_en":"Road closed","description_en":"Bárðardalsvegur Vestri (Road 842) will be closed from September 12th to December 1st, from Ring Road 1 to Bárðardalsvegur Eystri (Road 844) by the bridge over Skjálfandafljót. Traffic to Sprengisandsleið is detoured via Bárðardalsvegur Eystri (Road 844) at Fosshóll","description_is":"Bárðardalsvegur Vestri (842) verður lokaður vegna vegavinnu frá 12. september til 1. desember. Frá Hringvegi 1 að Bárðardalsvegi Eystri (44) við brú yfir Skjálfandafljót. Sprengisandsleið fer því um Bárðardalsveg Eystri (844) við Fosshól","started_at":"2026-09-18T07:33:12Z","ends_at":"2026-12-01T14:35:00Z","updated_at":"2026-09-18T07:33:12Z"},"geometry":{"type":"Point","coordinates":[-17.563784,65.689224]}},{"type":"Feature","properties":{"id":"IRCA_72746.0","kind":"closure","title_en":"Road closed","description_en":"Bárðardalsvegur Vestri (Road 842) will be closed from September 12th to December 1st, from Ring Road 1 to Bárðardalsvegur Eystri (Road 844) by the bridge over Skjálfandafljót. Traffic to Sprengisandsleið is detoured via Bárðardalsvegur Eystri (Road 844) at Fosshóll","description_is":"Bárðardalsvegur Vestri (842) verður lokaður vegna vegavinnu frá 12. september til 1. desember. Frá Hringvegi 1 að Bárðardalsvegi Eystri (44) við brú yfir Skjálfandafljót. Sprengisandsleið fer því um Bárðardalsveg Eystri (844) við Fosshól","started_at":"2026-09-18T07:32:53Z","ends_at":"2026-12-01T14:38:00Z","updated_at":"2026-09-18T07:32:53Z"},"geometry":{"type":"Point","coordinates":[-17.452408,65.49613]}},{"type":"Feature","properties":{"id":"IRCA_52549.0","kind":"warning","title_en":"Road warning","description_en":"The bridge over Skjálfandafljót (85) is open. It will still be closed to vehicles weighing more than 3,5 t. including buses that carry more than 8 passengers. Bypass on Hringvegur (1)","description_is":"Brúin yfir Skjálfandafljót á Norðausturvegi (85) er opin en það eru takmarkanir fyrir vörubifreiðar yfir 3500 kg. að heildarþyngd og fólksflutningabifreiðar/hópbifreiðar ætlaðar til að flytja fleiri en 8 farþega. Hjáleið um Fljótsheiði (1)","started_at":"2024-01-24T14:40:05Z","ends_at":"2027-01-24T15:19:00Z","updated_at":"2024-01-24T14:40:05Z"},"geometry":{"type":"Point","coordinates":[-17.509434,65.84064]}},{"type":"Feature","properties":{"id":"IRCA_72886.0","kind":"roadworks","title_en":"Road works","description_en":"Due to construction work taking place this winter, motorists are asked to be considerate and drive carefully.","description_is":"Vegna framkvæmda sem munu standa yfir í vetur eru vegfarendur beðnir að aka varlega um vinnusvæði.","started_at":"2026-09-21T13:55:36Z","ends_at":"2027-04-01T14:51:00Z","updated_at":"2026-09-21T13:55:36Z"},"geometry":{"type":"Point","coordinates":[-15.200708,66.17417]}}]}