{"type":"FeatureCollection","features":[{"type":"Feature","properties":{"id":"IRCA_MP_116","name":"Borgarhöfn","temperature":"5.4","road_temperature":"7.6","wind_speed":"3.3","wind_gust":"4.4","wind_direction":"44","humidity":"89.2","traffic_recent":"25","traffic_today":"1416","updated_at":"2026-10-06T18:50:00Z","map_label":"5.4°\n↗ 3.3 m/s\n🚗 25 / 1416","has_traffic":true},"geometry":{"type":"Point","coordinates":[-15.8145,64.18483]}},{"type":"Feature","properties":{"id":"IRCA_MP_109","name":"Arnarnesvegur","temperature":"5.1","road_temperature":"","wind_speed":"0.2","wind_gust":"0.9","wind_direction":"189","humidity":"81.5","traffic_recent":"","traffic_today":"","updated_at":"2026-10-06T18:40:00Z","map_label":"5.1°\n↓ 0.2 m/s","has_traffic":false},"geometry":{"type":"Point","coordinates":[-21.836569,64.08875]}},{"type":"Feature","properties":{"id":"IRCA_MP_118","name":"Reykjanesviti","temperature":"6.7","road_temperature":"","wind_speed":"2.5","wind_gust":"2.9","wind_direction":"175","humidity":"79.8","traffic_recent":"","traffic_today":"","updated_at":"2026-10-06T18:50:00Z","map_label":"6.7°\n↓ 2.5 m/s","has_traffic":false},"geometry":{"type":"Point","coordinates":[-22.70432,63.815605]}},{"type":"Feature","properties":{"id":"IRCA_MP_119","name":"Tíðaskarð","temperature":"5.2","road_temperature":"4.2","wind_speed":"0.7","wind_gust":"1.5","wind_direction":"160","humidity":"75.4","traffic_recent":"13","traffic_today":"971","updated_at":"2026-10-06T18:50:00Z","map_label":"5.2°\n↓ 0.7 m/s\n🚗 13 / 971","has_traffic":true},"geometry":{"type":"Point","coordinates":[-21.811983,64.28703]}},{"type":"Feature","properties":{"id":"IRCA_MP_120","name":"Saurbæjarás","temperature":"0.6","road_temperature":"1.5","wind_speed":"1.2","wind_gust":"2.6","wind_direction":"124","humidity":"85.6","traffic_recent":"5","traffic_today":"729","updated_at":"2026-10-06T18:50:00Z","map_label":"0.6°\n↘ 1.2 m/s\n🚗 5 / 729","has_traffic":true},"geometry":{"type":"Point","coordinates":[-18.902283,66.13168]}},{"type":"Feature","properties":{"id":"IRCA_MP_50953","name":"Selháls","temperature":"","road_temperature":"","wind_speed":"","wind_gust":"","wind_direction":"","humidity":"","traffic_recent":"57","traffic_today":"2588","updated_at":"2026-10-06T18:45:00Z","map_label":"🚗 57 / 2588","has_traffic":true},"geometry":{"type":"Point","coordinates":[-22.423532,63.868332]}},{"type":"Feature","properties":{"id":"IRCA_MP_55027","name":"Þingborg austan Selfoss","temperature":"","road_temperature":"","wind_speed":"","wind_gust":"","wind_direction":"","humidity":"","traffic_recent":"150","traffic_today":"6531","updated_at":"2026-10-06T18:45:00Z","map_label":"🚗 150 / 6531","has_traffic":true},"geometry":{"type":"Point","coordinates":[-20.87,63.943]}},{"type":"Feature","properties":{"id":"IRCA_MP_55030","name":"Skeiðavegur","temperature":"","road_temperature":"","wind_speed":"","wind_gust":"","wind_direction":"","humidity":"","traffic_recent":"47","traffic_today":"2125","updated_at":"2026-10-06T18:45:00Z","map_label":"🚗 47 / 2125","has_traffic":true},"geometry":{"type":"Point","coordinates":[-20.643955,63.96261]}},{"type":"Feature","properties":{"id":"IRCA_MP_50935","name":"Grindavíkurvegur","temperature":"","road_temperature":"","wind_speed":"","wind_gust":"","wind_direction":"","humidity":"","traffic_recent":"65","traffic_today":"3816","updated_at":"2026-10-06T18:45:00Z","map_label":"🚗 65 / 3816","has_traffic":true},"geometry":{"type":"Point","coordinates":[-22.423529,63.95289]}},{"type":"Feature","properties":{"id":"IRCA_MP_50944","name":"Nesvegur við golfvöll","temperature":"","road_temperature":"","wind_speed":"","wind_gust":"","wind_direction":"","humidity":"","traffic_recent":"19","traffic_today":"543","updated_at":"2026-10-06T18:45:00Z","map_label":"🚗 19 / 543","has_traffic":true},"geometry":{"type":"Point","coordinates":[-22.508806,63.83112]}},{"type":"Feature","properties":{"id":"IRCA_MP_299","name":"Dynjandisheiði við sýslumörk","temperature":"","road_temperature":"","wind_speed":"4.4","wind_gust":"6","wind_direction":"176","humidity":"75.4","traffic_recent":"","traffic_today":"","updated_at":"2026-10-06T18:50:00Z","map_label":"↓ 4.4 m/s","has_traffic":false},"geometry":{"type":"Point","coordinates":[-23.20685,65.70953]}},{"type":"Feature","properties":{"id":"IRCA_MP_123","name":"Dettifoss","temperature":"-0.3","road_temperature":"0.4","wind_speed":"3.8","wind_gust":"4.3","wind_direction":"196","humidity":"84.4","traffic_recent":"2","traffic_today":"535","updated_at":"2026-10-06T18:50:00Z","map_label":"-0.3°\n↓ 3.8 m/s\n🚗 2 / 535","has_traffic":true},"geometry":{"type":"Point","coordinates":[-16.443083,65.81495]}},{"type":"Feature","properties":{"id":"IRCA_MP_50951","name":"Skagastrandarvegur","temperature":"","road_temperature":"","wind_speed":"","wind_gust":"","wind_direction":"","humidity":"","traffic_recent":"5","traffic_today":"329","updated_at":"2026-10-06T18:50:00Z","map_label":"🚗 5 / 329","has_traffic":true},"geometry":{"type":"Point","coordinates":[-20.226622,65.72066]}},{"type":"Feature","properties":{"id":"IRCA_MP_127","name":"Refasveit","temperature":"3.6","road_temperature":"5.1","wind_speed":"2.1","wind_gust":"3.3","wind_direction":"121","humidity":"74.1","traffic_recent":"10","traffic_today":"637","updated_at":"2026-10-06T18:50:00Z","map_label":"3.6°\n↘ 2.1 m/s\n🚗 10 / 637","has_traffic":true},"geometry":{"type":"Point","coordinates":[-20.22575,65.72023]}},{"type":"Feature","properties":{"id":"IRCA_MP_130","name":"Sveifluháls","temperature":"4.7","road_temperature":"","wind_speed":"0.7","wind_gust":"1.2","wind_direction":"273","humidity":"84.3","traffic_recent":"8","traffic_today":"645","updated_at":"2026-10-06T18:50:00Z","map_label":"4.7°\n← 0.7 m/s\n🚗 8 / 645","has_traffic":true},"geometry":{"type":"Point","coordinates":[-21.945696,63.966427]}},{"type":"Feature","properties":{"id":"IRCA_MP_131","name":"Kleifarvatn","temperature":"5.1","road_temperature":"","wind_speed":"0","wind_gust":"0","wind_direction":"0","humidity":"85.7","traffic_recent":"","traffic_today":"","updated_at":"2026-10-06T18:50:00Z","map_label":"5.1°\n↑ 0 m/s","has_traffic":false},"geometry":{"type":"Point","coordinates":[-22.015833,63.918983]}},{"type":"Feature","properties":{"id":"IRCA_MP_50940","name":"Rétt norðan Dýrafjarðarganga","temperature":"","road_temperature":"","wind_speed":"","wind_gust":"","wind_direction":"","humidity":"","traffic_recent":"1","traffic_today":"185","updated_at":"2026-10-06T18:45:00Z","map_label":"🚗 1 / 185","has_traffic":true},"geometry":{"type":"Point","coordinates":[-23.232883,65.83478]}},{"type":"Feature","properties":{"id":"IRCA_MP_50941","name":"Súðavíkurhlíð","temperature":"","road_temperature":"","wind_speed":"","wind_gust":"","wind_direction":"","humidity":"","traffic_recent":"23","traffic_today":"520","updated_at":"2026-10-06T18:45:00Z","map_label":"🚗 23 / 520","has_traffic":true},"geometry":{"type":"Point","coordinates":[-22.986917,66.06425]}},{"type":"Feature","properties":{"id":"IRCA_MP_128","name":"Gíghæð","temperature":"5.7","road_temperature":"","wind_speed":"0.8","wind_gust":"1","wind_direction":"348","humidity":"82","traffic_recent":"","traffic_today":"","updated_at":"2026-10-06T18:50:00Z","map_label":"5.7°\n↑ 0.8 m/s","has_traffic":false},"geometry":{"type":"Point","coordinates":[-22.421783,63.903183]}},{"type":"Feature","properties":{"id":"IRCA_MP_137","name":"Dýrafjarðargöng-S","temperature":"","road_temperature":"","wind_speed":"0.3","wind_gust":"1.6","wind_direction":"90","humidity":"","traffic_recent":"","traffic_today":"","updated_at":"2026-10-06T18:50:00Z","map_label":"→ 0.3 m/s","has_traffic":false},"geometry":{"type":"Point","coordinates":[-23.202974,65.786476]}},{"type":"Feature","properties":{"id":"IRCA_MP_138","name":"Dýrafjarðargöng-N","temperature":"","road_temperature":"","wind_speed":"4.4","wind_gust":"5.7","wind_direction":"184","humidity":"","traffic_recent":"","traffic_today":"","updated_at":"2026-10-06T18:50:00Z","map_label":"↓ 4.4 m/s","has_traffic":false},"geometry":{"type":"Point","coordinates":[-23.233332,65.8347]}},{"type":"Feature","properties":{"id":"IRCA_MP_50910","name":"Biskupstungnabraut","temperature":"","road_temperature":"","wind_speed":"","wind_gust":"","wind_direction":"","humidity":"","traffic_recent":"102","traffic_today":"4356","updated_at":"2026-10-06T18:45:00Z","map_label":"🚗 102 / 4356","has_traffic":true},"geometry":{"type":"Point","coordinates":[-21.00515,63.961117]}},{"type":"Feature","properties":{"id":"IRCA_MP_133","name":"Hallsteinsnes","temperature":"5.7","road_temperature":"","wind_speed":"0.7","wind_gust":"1","wind_direction":"315","humidity":"79.7","traffic_recent":"","traffic_today":"","updated_at":"2026-10-06T18:50:00Z","map_label":"5.7°\n↖ 0.7 m/s","has_traffic":false},"geometry":{"type":"Point","coordinates":[-22.334488,65.529205]}},{"type":"Feature","properties":{"id":"IRCA_MP_135","name":"Hrafnanes","temperature":"5","road_temperature":"7.6","wind_speed":"0.6","wind_gust":"0.9","wind_direction":"347","humidity":"76.3","traffic_recent":"2","traffic_today":"276","updated_at":"2026-10-06T18:50:00Z","map_label":"5°\n↑ 0.6 m/s\n🚗 2 / 276","has_traffic":true},"geometry":{"type":"Point","coordinates":[-23.317244,65.4918]}},{"type":"Feature","properties":{"id":"IRCA_MP_124","name":"Flatey á Breiðafirði","temperature":"6.9","road_temperature":"","wind_speed":"2.3","wind_gust":"3","wind_direction":"183","humidity":"71","traffic_recent":"","traffic_today":"","updated_at":"2026-10-06T18:50:00Z","map_label":"6.9°\n↓ 2.3 m/s","has_traffic":false},"geometry":{"type":"Point","coordinates":[-22.928888,65.37194]}},{"type":"Feature","properties":{"id":"IRCA_MP_126","name":"Núpahraun","temperature":"4.7","road_temperature":"7.5","wind_speed":"1.8","wind_gust":"2.3","wind_direction":"298","humidity":"92.7","traffic_recent":"27","traffic_today":"1870","updated_at":"2026-10-06T18:50:00Z","map_label":"4.7°\n↖ 1.8 m/s\n🚗 27 / 1870","has_traffic":true},"geometry":{"type":"Point","coordinates":[-17.70535,63.933384]}},{"type":"Feature","properties":{"id":"IRCA_MP_55020","name":"Reykjanesbraut á móts við bensínstöð","temperature":"","road_temperature":"","wind_speed":"","wind_gust":"","wind_direction":"","humidity":"","traffic_recent":"1043","traffic_today":"52610","updated_at":"2026-10-06T18:30:00Z","map_label":"🚗 1043 / 52610","has_traffic":true},"geometry":{"type":"Point","coordinates":[-21.866488,64.10484]}},{"type":"Feature","properties":{"id":"IRCA_MP_50931","name":"NA kirkjugarðs í Hafnarfirði","temperature":"","road_temperature":"","wind_speed":"","wind_gust":"","wind_direction":"","humidity":"","traffic_recent":"592","traffic_today":"30747","updated_at":"2026-10-06T18:45:00Z","map_label":"🚗 592 / 30747","has_traffic":true},"geometry":{"type":"Point","coordinates":[-21.93852,64.06265]}},{"type":"Feature","properties":{"id":"IRCA_MP_55021","name":"Hafnarfj.v. S Kópav.lækjar","temperature":"","road_temperature":"","wind_speed":"","wind_gust":"","wind_direction":"","humidity":"","traffic_recent":"834","traffic_today":"44120","updated_at":"2026-10-06T18:30:00Z","map_label":"🚗 834 / 44120","has_traffic":true},"geometry":{"type":"Point","coordinates":[-21.905886,64.10254]}},{"type":"Feature","properties":{"id":"IRCA_MP_55043","name":"Ártúnsbrekka","temperature":"","road_temperature":"","wind_speed":"","wind_gust":"","wind_direction":"","humidity":"","traffic_recent":"1286","traffic_today":"61338","updated_at":"2026-10-06T18:00:00Z","map_label":"🚗 1286 / 61338","has_traffic":true},"geometry":{"type":"Point","coordinates":[-21.84171,64.12422]}},{"type":"Feature","properties":{"id":"IRCA_MP_140","name":"Norðfjarðargöng","temperature":"0.1","road_temperature":"0.2","wind_speed":"0.1","wind_gust":"1.3","wind_direction":"208","humidity":"86.8","traffic_recent":"","traffic_today":"","updated_at":"2026-10-06T18:50:00Z","map_label":"0.1°\n↙ 0.1 m/s","has_traffic":false},"geometry":{"type":"Point","coordinates":[-13.920678,65.12517]}},{"type":"Feature","properties":{"id":"IRCA_MP_55042","name":"Sæbraut","temperature":"","road_temperature":"","wind_speed":"","wind_gust":"","wind_direction":"","humidity":"","traffic_recent":"333","traffic_today":"21075","updated_at":"2026-10-06T18:30:00Z","map_label":"🚗 333 / 21075","has_traffic":true},"geometry":{"type":"Point","coordinates":[-21.904371,64.14701]}},{"type":"Feature","properties":{"id":"IRCA_MP_50906","name":"Mosfellsbær","temperature":"","road_temperature":"","wind_speed":"","wind_gust":"","wind_direction":"","humidity":"","traffic_recent":"344","traffic_today":"17650","updated_at":"2026-10-06T18:45:00Z","map_label":"🚗 344 / 17650","has_traffic":true},"geometry":{"type":"Point","coordinates":[-21.68634,64.16764]}},{"type":"Feature","properties":{"id":"IRCA_MP_50923","name":"Rauðavatn","temperature":"","road_temperature":"","wind_speed":"","wind_gust":"","wind_direction":"","humidity":"","traffic_recent":"426","traffic_today":"22533","updated_at":"2026-10-06T18:45:00Z","map_label":"🚗 426 / 22533","has_traffic":true},"geometry":{"type":"Point","coordinates":[-21.779482,64.10843]}},{"type":"Feature","properties":{"id":"IRCA_MP_50914","name":"Borg á Mýrum","temperature":"","road_temperature":"","wind_speed":"","wind_gust":"","wind_direction":"","humidity":"","traffic_recent":"32","traffic_today":"1763","updated_at":"2026-10-06T18:45:00Z","map_label":"🚗 32 / 1763","has_traffic":true},"geometry":{"type":"Point","coordinates":[-21.91235,64.56002]}},{"type":"Feature","properties":{"id":"IRCA_MP_55024","name":"Fagridalur","temperature":"","road_temperature":"","wind_speed":"","wind_gust":"","wind_direction":"","humidity":"","traffic_recent":"28","traffic_today":"1183","updated_at":"2026-10-06T18:30:00Z","map_label":"🚗 28 / 1183","has_traffic":true},"geometry":{"type":"Point","coordinates":[-14.333433,65.121]}},{"type":"Feature","properties":{"id":"IRCA_MP_141","name":"Skógey","temperature":"3.2","road_temperature":"8.6","wind_speed":"2.6","wind_gust":"3.2","wind_direction":"109","humidity":"88.2","traffic_recent":"","traffic_today":"","updated_at":"2026-10-06T18:50:00Z","map_label":"3.2°\n→ 2.6 m/s","has_traffic":false},"geometry":{"type":"Point","coordinates":[-15.323883,64.293785]}},{"type":"Feature","properties":{"id":"IRCA_MP_143","name":"Mjósund","temperature":"-1.9","road_temperature":"","wind_speed":"2.2","wind_gust":"3.2","wind_direction":"180","humidity":"90.3","traffic_recent":"","traffic_today":"","updated_at":"2026-10-06T18:50:00Z","map_label":"-1.9°\n↓ 2.2 m/s","has_traffic":false},"geometry":{"type":"Point","coordinates":[-14.1706,65.239716]}},{"type":"Feature","properties":{"id":"IRCA_MP_55023","name":"Pétursey","temperature":"","road_temperature":"","wind_speed":"","wind_gust":"","wind_direction":"","humidity":"","traffic_recent":"52","traffic_today":"2759","updated_at":"2026-10-06T18:45:00Z","map_label":"🚗 52 / 2759","has_traffic":true},"geometry":{"type":"Point","coordinates":[-19.270517,63.47447]}},{"type":"Feature","properties":{"id":"IRCA_MP_142","name":"Hella","temperature":"3.1","road_temperature":"6.9","wind_speed":"2.3","wind_gust":"3.4","wind_direction":"341","humidity":"79.2","traffic_recent":"54","traffic_today":"4406","updated_at":"2026-10-06T18:50:00Z","map_label":"3.1°\n↑ 2.3 m/s\n🚗 54 / 4406","has_traffic":true},"geometry":{"type":"Point","coordinates":[-20.365383,63.825684]}},{"type":"Feature","properties":{"id":"IRCA_MP_50955","name":"Patreksfjörður kirkjugarður","temperature":"","road_temperature":"","wind_speed":"","wind_gust":"","wind_direction":"","humidity":"","traffic_recent":"2","traffic_today":"452","updated_at":"2026-10-06T18:45:00Z","map_label":"🚗 2 / 452","has_traffic":true},"geometry":{"type":"Point","coordinates":[-23.969559,65.58995]}},{"type":"Feature","properties":{"id":"IRCA_MP_50956","name":"Norðan gatnamóta við Lónsbakka","temperature":"","road_temperature":"","wind_speed":"","wind_gust":"","wind_direction":"","humidity":"","traffic_recent":"85","traffic_today":"5076","updated_at":"2026-10-06T18:45:00Z","map_label":"🚗 85 / 5076","has_traffic":true},"geometry":{"type":"Point","coordinates":[-18.15194,65.70307]}},{"type":"Feature","properties":{"id":"IRCA_MP_2165","name":"Skaftafell","temperature":"3.3","road_temperature":"","wind_speed":"1.3","wind_gust":"2","wind_direction":"291","humidity":"86","traffic_recent":"","traffic_today":"","updated_at":"2026-10-06T18:40:00Z","map_label":"3.3°\n← 1.3 m/s","has_traffic":false},"geometry":{"type":"Point","coordinates":[-16.972116,64.014366]}},{"type":"Feature","properties":{"id":"IRCA_MP_2146","name":"Fontur","temperature":"3.4","road_temperature":"","wind_speed":"2.6","wind_gust":"3.9","wind_direction":"151","humidity":"92","traffic_recent":"","traffic_today":"","updated_at":"2026-10-06T18:40:00Z","map_label":"3.4°\n↘ 2.6 m/s","has_traffic":false},"geometry":{"type":"Point","coordinates":[-14.532583,66.37835]}},{"type":"Feature","properties":{"id":"IRCA_MP_2151","name":"Kambanes","temperature":"3.9","road_temperature":"","wind_speed":"2.9","wind_gust":"4.1","wind_direction":"41","humidity":"84","traffic_recent":"","traffic_today":"","updated_at":"2026-10-06T18:40:00Z","map_label":"3.9°\n↗ 2.9 m/s","has_traffic":false},"geometry":{"type":"Point","coordinates":[-13.8423,64.80123]}},{"type":"Feature","properties":{"id":"IRCA_MP_2147","name":"Rauðinúpur","temperature":"1.8","road_temperature":"","wind_speed":"5.2","wind_gust":"5.7","wind_direction":"125","humidity":"90","traffic_recent":"","traffic_today":"","updated_at":"2026-10-06T18:40:00Z","map_label":"1.8°\n↘ 5.2 m/s","has_traffic":false},"geometry":{"type":"Point","coordinates":[-16.544382,66.5082]}},{"type":"Feature","properties":{"id":"IRCA_MP_2190","name":"Selfoss","temperature":"3.7","road_temperature":"","wind_speed":"0.8","wind_gust":"1.1","wind_direction":"28","humidity":"82","traffic_recent":"","traffic_today":"","updated_at":"2026-10-06T18:40:00Z","map_label":"3.7°\n↗ 0.8 m/s","has_traffic":false},"geometry":{"type":"Point","coordinates":[-20.970667,63.935467]}},{"type":"Feature","properties":{"id":"IRCA_MP_2191","name":"Akureyri - Krossanesbraut","temperature":"2.9","road_temperature":"","wind_speed":"2","wind_gust":"2.6","wind_direction":"211","humidity":"69","traffic_recent":"","traffic_today":"","updated_at":"2026-10-06T18:40:00Z","map_label":"2.9°\n↙ 2 m/s","has_traffic":false},"geometry":{"type":"Point","coordinates":[-18.111317,65.69611]}},{"type":"Feature","properties":{"id":"IRCA_MP_2192","name":"Torfur","temperature":"2.4","road_temperature":"","wind_speed":"0.9","wind_gust":"1.3","wind_direction":"201","humidity":"71","traffic_recent":"","traffic_today":"","updated_at":"2026-10-06T18:40:00Z","map_label":"2.4°\n↓ 0.9 m/s","has_traffic":false},"geometry":{"type":"Point","coordinates":[-18.1616,65.50097]}},{"type":"Feature","properties":{"id":"IRCA_MP_2193","name":"Reykjavík Háahlíð","temperature":"6.4","road_temperature":"","wind_speed":"1","wind_gust":"1.9","wind_direction":"259","humidity":"75","traffic_recent":"","traffic_today":"","updated_at":"2026-10-06T18:40:00Z","map_label":"6.4°\n← 1 m/s","has_traffic":false},"geometry":{"type":"Point","coordinates":[-21.908216,64.12883]}},{"type":"Feature","properties":{"id":"IRCA_MP_2194","name":"Litla-Ávík","temperature":"6.5","road_temperature":"","wind_speed":"2.6","wind_gust":"3.3","wind_direction":"147","humidity":"76","traffic_recent":"","traffic_today":"","updated_at":"2026-10-06T18:40:00Z","map_label":"6.5°\n↘ 2.6 m/s","has_traffic":false},"geometry":{"type":"Point","coordinates":[-21.424717,66.0211]}},{"type":"Feature","properties":{"id":"IRCA_MP_2180","name":"Straumsvík","temperature":"6","road_temperature":"","wind_speed":"1.1","wind_gust":"1.3","wind_direction":"339","humidity":"69","traffic_recent":"","traffic_today":"","updated_at":"2026-10-06T18:40:00Z","map_label":"6°\n↑ 1.1 m/s","has_traffic":false},"geometry":{"type":"Point","coordinates":[-22.04045,64.0438]}},{"type":"Feature","properties":{"id":"IRCA_MP_2183","name":"Eyrarbakki","temperature":"4.2","road_temperature":"","wind_speed":"1.3","wind_gust":"1.5","wind_direction":"48","humidity":"79","traffic_recent":"","traffic_today":"","updated_at":"2026-10-06T18:40:00Z","map_label":"4.2°\n↗ 1.3 m/s","has_traffic":false},"geometry":{"type":"Point","coordinates":[-21.1602,63.8692]}},{"type":"Feature","properties":{"id":"IRCA_MP_2184","name":"Hólmsheiði","temperature":"4.5","road_temperature":"","wind_speed":"1.7","wind_gust":"2","wind_direction":"149","humidity":"78","traffic_recent":"","traffic_today":"","updated_at":"2026-10-06T18:40:00Z","map_label":"4.5°\n↘ 1.7 m/s","has_traffic":false},"geometry":{"type":"Point","coordinates":[-21.686367,64.1085]}},{"type":"Feature","properties":{"id":"IRCA_MP_2185","name":"Geldinganes","temperature":"4.8","road_temperature":"","wind_speed":"2.8","wind_gust":"3.5","wind_direction":"83","humidity":"81","traffic_recent":"","traffic_today":"","updated_at":"2026-10-06T18:40:00Z","map_label":"4.8°\n→ 2.8 m/s","has_traffic":false},"geometry":{"type":"Point","coordinates":[-21.8038,64.167786]}},{"type":"Feature","properties":{"id":"IRCA_MP_2171","name":"Fíflholt á Mýrum","temperature":"4.4","road_temperature":"","wind_speed":"1.4","wind_gust":"1.8","wind_direction":"227","humidity":"80","traffic_recent":"","traffic_today":"","updated_at":"2026-10-06T18:40:00Z","map_label":"4.4°\n↙ 1.4 m/s","has_traffic":false},"geometry":{"type":"Point","coordinates":[-22.147333,64.69432]}},{"type":"Feature","properties":{"id":"IRCA_MP_2","name":"Þverfjall","temperature":"1.7","road_temperature":"","wind_speed":"3.2","wind_gust":"5.4","wind_direction":"224","humidity":"85","traffic_recent":"","traffic_today":"","updated_at":"2026-10-06T18:40:00Z","map_label":"1.7°\n↙ 3.2 m/s","has_traffic":false},"geometry":{"type":"Point","coordinates":[-23.30745,66.04443]}},{"type":"Feature","properties":{"id":"IRCA_MP_2173","name":"Höfn í Hornafirði","temperature":"4.6","road_temperature":"","wind_speed":"6","wind_gust":"7.6","wind_direction":"82","humidity":"86","traffic_recent":"","traffic_today":"","updated_at":"2026-10-06T18:40:00Z","map_label":"4.6°\n→ 6 m/s","has_traffic":false},"geometry":{"type":"Point","coordinates":[-15.209,64.2557]}},{"type":"Feature","properties":{"id":"IRCA_MP_2179","name":"Surtsey","temperature":"7.5","road_temperature":"","wind_speed":"5.1","wind_gust":"6.7","wind_direction":"96","humidity":"80","traffic_recent":"","traffic_today":"","updated_at":"2026-10-06T18:40:00Z","map_label":"7.5°\n→ 5.1 m/s","has_traffic":false},"geometry":{"type":"Point","coordinates":[-20.599466,63.2993]}},{"type":"Feature","properties":{"id":"IRCA_MP_2101","name":"Reykjavík","temperature":"6.2","road_temperature":"","wind_speed":"1.1","wind_gust":"1.8","wind_direction":"272","humidity":"","traffic_recent":"","traffic_today":"","updated_at":"2026-10-06T18:40:00Z","map_label":"6.2°\n← 1.1 m/s","has_traffic":false},"geometry":{"type":"Point","coordinates":[-21.902,64.12755]}},{"type":"Feature","properties":{"id":"IRCA_MP_2102","name":"Korpa","temperature":"4.7","road_temperature":"","wind_speed":"1.5","wind_gust":"2.4","wind_direction":"147","humidity":"80","traffic_recent":"","traffic_today":"","updated_at":"2026-10-06T18:40:00Z","map_label":"4.7°\n↘ 1.5 m/s","has_traffic":false},"geometry":{"type":"Point","coordinates":[-21.751066,64.150536]}},{"type":"Feature","properties":{"id":"IRCA_MP_192","name":"Krepputunga","temperature":"-3.1","road_temperature":"","wind_speed":"3.7","wind_gust":"4.3","wind_direction":"161","humidity":"81","traffic_recent":"","traffic_today":"","updated_at":"2026-10-06T18:40:00Z","map_label":"-3.1°\n↓ 3.7 m/s","has_traffic":false},"geometry":{"type":"Point","coordinates":[-16.2104,65.06065]}},{"type":"Feature","properties":{"id":"IRCA_MP_2186","name":"Garðabær - Urriðaholt","temperature":"3.4","road_temperature":"","wind_speed":"0.5","wind_gust":"1.6","wind_direction":"168","humidity":"84","traffic_recent":"","traffic_today":"","updated_at":"2026-10-06T18:40:00Z","map_label":"3.4°\n↓ 0.5 m/s","has_traffic":false},"geometry":{"type":"Point","coordinates":[-21.910667,64.07117]}},{"type":"Feature","properties":{"id":"IRCA_MP_2187","name":"Víðidalur","temperature":"3.6","road_temperature":"","wind_speed":"1.5","wind_gust":"1.7","wind_direction":"140","humidity":"83","traffic_recent":"","traffic_today":"","updated_at":"2026-10-06T18:40:00Z","map_label":"3.6°\n↘ 1.5 m/s","has_traffic":false},"geometry":{"type":"Point","coordinates":[-21.797083,64.10347]}},{"type":"Feature","properties":{"id":"IRCA_MP_2181","name":"Þyrill","temperature":"6","road_temperature":"","wind_speed":"0","wind_gust":"0","wind_direction":"0","humidity":"75","traffic_recent":"","traffic_today":"","updated_at":"2026-10-06T18:40:00Z","map_label":"6°\n↑ 0 m/s","has_traffic":false},"geometry":{"type":"Point","coordinates":[-21.416883,64.38773]}},{"type":"Feature","properties":{"id":"IRCA_MP_2188","name":"Seltjarnarnes","temperature":"7","road_temperature":"","wind_speed":"0.7","wind_gust":"0.9","wind_direction":"288","humidity":"76","traffic_recent":"","traffic_today":"","updated_at":"2026-10-06T18:40:00Z","map_label":"7°\n← 0.7 m/s","has_traffic":false},"geometry":{"type":"Point","coordinates":[-22.032516,64.1545]}},{"type":"Feature","properties":{"id":"IRCA_MP_2189","name":"Geirsnef","temperature":"5.2","road_temperature":"","wind_speed":"1.2","wind_gust":"2.4","wind_direction":"186","humidity":"79","traffic_recent":"","traffic_today":"","updated_at":"2026-10-06T18:40:00Z","map_label":"5.2°\n↓ 1.2 m/s","has_traffic":false},"geometry":{"type":"Point","coordinates":[-21.839184,64.12925]}},{"type":"Feature","properties":{"id":"IRCA_MP_2110","name":"Gufuskálar","temperature":"4.7","road_temperature":"","wind_speed":"3.4","wind_gust":"4.7","wind_direction":"173","humidity":"72","traffic_recent":"","traffic_today":"","updated_at":"2026-10-06T18:40:00Z","map_label":"4.7°\n↓ 3.4 m/s","has_traffic":false},"geometry":{"type":"Point","coordinates":[-23.933332,64.9]}},{"type":"Feature","properties":{"id":"IRCA_MP_2111","name":"Ólafsvík","temperature":"6.2","road_temperature":"","wind_speed":"4.3","wind_gust":"7.3","wind_direction":"208","humidity":"67","traffic_recent":"","traffic_today":"","updated_at":"2026-10-06T18:40:00Z","map_label":"6.2°\n↙ 4.3 m/s","has_traffic":false},"geometry":{"type":"Point","coordinates":[-23.716204,64.8957]}},{"type":"Feature","properties":{"id":"IRCA_MP_2113","name":"Grundarfjörður","temperature":"5.2","road_temperature":"","wind_speed":"5.2","wind_gust":"6.1","wind_direction":"208","humidity":"68","traffic_recent":"","traffic_today":"","updated_at":"2026-10-06T18:40:00Z","map_label":"5.2°\n↙ 5.2 m/s","has_traffic":false},"geometry":{"type":"Point","coordinates":[-23.251266,64.9213]}},{"type":"Feature","properties":{"id":"IRCA_MP_2114","name":"Stykkishólmur","temperature":"4.7","road_temperature":"","wind_speed":"0.3","wind_gust":"0.5","wind_direction":"134","humidity":"73","traffic_recent":"","traffic_today":"","updated_at":"2026-10-06T18:40:00Z","map_label":"4.7°\n↘ 0.3 m/s","has_traffic":false},"geometry":{"type":"Point","coordinates":[-22.732367,65.0717]}},{"type":"Feature","properties":{"id":"IRCA_MP_2120","name":"Hveravellir","temperature":"-0.3","road_temperature":"","wind_speed":"5.2","wind_gust":"5.8","wind_direction":"194","humidity":"88","traffic_recent":"","traffic_today":"","updated_at":"2026-10-06T18:40:00Z","map_label":"-0.3°\n↓ 5.2 m/s","has_traffic":false},"geometry":{"type":"Point","coordinates":[-19.562218,64.86675]}},{"type":"Feature","properties":{"id":"IRCA_MP_2123","name":"Súðavík","temperature":"4.5","road_temperature":"","wind_speed":"1.1","wind_gust":"1.4","wind_direction":"196","humidity":"82","traffic_recent":"","traffic_today":"","updated_at":"2026-10-06T18:40:00Z","map_label":"4.5°\n↓ 1.1 m/s","has_traffic":false},"geometry":{"type":"Point","coordinates":[-22.98605,66.0426]}},{"type":"Feature","properties":{"id":"IRCA_MP_2131","name":"Möðruvellir","temperature":"-2.1","road_temperature":"","wind_speed":"2","wind_gust":"2.3","wind_direction":"213","humidity":"87","traffic_recent":"","traffic_today":"","updated_at":"2026-10-06T18:40:00Z","map_label":"-2.1°\n↙ 2 m/s","has_traffic":false},"geometry":{"type":"Point","coordinates":[-18.251333,65.77065]}},{"type":"Feature","properties":{"id":"IRCA_MP_2135","name":"Húsavík","temperature":"2.5","road_temperature":"","wind_speed":"0.8","wind_gust":"2.6","wind_direction":"122","humidity":"82","traffic_recent":"","traffic_today":"","updated_at":"2026-10-06T18:40:00Z","map_label":"2.5°\n↘ 0.8 m/s","has_traffic":false},"geometry":{"type":"Point","coordinates":[-17.328083,66.04182]}},{"type":"Feature","properties":{"id":"IRCA_MP_2138","name":"Grímsey","temperature":"4.6","road_temperature":"","wind_speed":"5.3","wind_gust":"6.2","wind_direction":"135","humidity":"82.1","traffic_recent":"","traffic_today":"","updated_at":"2026-10-06T18:00:00Z","map_label":"4.6°\n↘ 5.3 m/s","has_traffic":false},"geometry":{"type":"Point","coordinates":[-18.016733,66.543785]}},{"type":"Feature","properties":{"id":"IRCA_MP_2141","name":"Dalatangi","temperature":"2.8","road_temperature":"","wind_speed":"1","wind_gust":"2.1","wind_direction":"287","humidity":"78","traffic_recent":"","traffic_today":"","updated_at":"2026-10-06T18:40:00Z","map_label":"2.8°\n← 1 m/s","has_traffic":false},"geometry":{"type":"Point","coordinates":[-13.574967,65.26815]}},{"type":"Feature","properties":{"id":"IRCA_MP_2159","name":"Stórhöfði","temperature":"6.9","road_temperature":"","wind_speed":"6.1","wind_gust":"8.1","wind_direction":"110","humidity":"86","traffic_recent":"","traffic_today":"","updated_at":"2026-10-06T18:40:00Z","map_label":"6.9°\n→ 6.1 m/s","has_traffic":false},"geometry":{"type":"Point","coordinates":[-20.28825,63.399567]}},{"type":"Feature","properties":{"id":"IRCA_MP_195","name":"Þúfuver","temperature":"1.1","road_temperature":"","wind_speed":"1.2","wind_gust":"2","wind_direction":"247","humidity":"88","traffic_recent":"","traffic_today":"","updated_at":"2026-10-06T18:30:00Z","map_label":"1.1°\n↙ 1.2 m/s","has_traffic":false},"geometry":{"type":"Point","coordinates":[-18.60085,64.57515]}},{"type":"Feature","properties":{"id":"IRCA_MP_199","name":"Veiðivatnahraun","temperature":"2.6","road_temperature":"","wind_speed":"2.3","wind_gust":"3.2","wind_direction":"147","humidity":"83","traffic_recent":"","traffic_today":"","updated_at":"2026-10-06T17:10:00Z","map_label":"2.6°\n↘ 2.3 m/s","has_traffic":false},"geometry":{"type":"Point","coordinates":[-18.504766,64.3951]}},{"type":"Feature","properties":{"id":"IRCA_MP_196","name":"Kolka","temperature":"2.8","road_temperature":"","wind_speed":"2.6","wind_gust":"3","wind_direction":"192","humidity":"76","traffic_recent":"0","traffic_today":"19","updated_at":"2026-10-06T17:50:00Z","map_label":"2.8°\n↓ 2.6 m/s\n🚗 0 / 19","has_traffic":true},"geometry":{"type":"Point","coordinates":[-19.713245,65.23134]}},{"type":"Feature","properties":{"id":"IRCA_MP_194","name":"Jökulheimar","temperature":"0.2","road_temperature":"","wind_speed":"2","wind_gust":"2.4","wind_direction":"46","humidity":"90","traffic_recent":"","traffic_today":"","updated_at":"2026-10-06T18:00:00Z","map_label":"0.2°\n↗ 2 m/s","has_traffic":false},"geometry":{"type":"Point","coordinates":[-18.216667,64.316666]}},{"type":"Feature","properties":{"id":"IRCA_MP_198","name":"Búrfell","temperature":"2.6","road_temperature":"","wind_speed":"2.8","wind_gust":"3.6","wind_direction":"35","humidity":"85","traffic_recent":"","traffic_today":"","updated_at":"2026-10-06T18:40:00Z","map_label":"2.6°\n↗ 2.8 m/s","has_traffic":false},"geometry":{"type":"Point","coordinates":[-19.74485,64.11684]}},{"type":"Feature","properties":{"id":"IRCA_MP_189","name":"Eyjabakkar","temperature":"-2.5","road_temperature":"","wind_speed":"1","wind_gust":"1.4","wind_direction":"332","humidity":"83","traffic_recent":"","traffic_today":"","updated_at":"2026-10-06T18:00:00Z","map_label":"-2.5°\n↖ 1 m/s","has_traffic":false},"geometry":{"type":"Point","coordinates":[-15.423467,64.81509]}},{"type":"Feature","properties":{"id":"IRCA_MP_191","name":"Setur","temperature":"1.6","road_temperature":"","wind_speed":"0.8","wind_gust":"2.4","wind_direction":"146","humidity":"83","traffic_recent":"","traffic_today":"","updated_at":"2026-10-06T18:40:00Z","map_label":"1.6°\n↘ 0.8 m/s","has_traffic":false},"geometry":{"type":"Point","coordinates":[-19.0186,64.6043]}},{"type":"Feature","properties":{"id":"IRCA_MP_193","name":"Sandbúðir","temperature":"-2.8","road_temperature":"","wind_speed":"0.5","wind_gust":"0.5","wind_direction":"64","humidity":"85","traffic_recent":"","traffic_today":"","updated_at":"2026-10-06T18:00:00Z","map_label":"-2.8°\n↗ 0.5 m/s","has_traffic":false},"geometry":{"type":"Point","coordinates":[-17.983,64.933334]}},{"type":"Feature","properties":{"id":"IRCA_MP_1181","name":"Borgarnes","temperature":"7","road_temperature":"","wind_speed":"2.4","wind_gust":"2.9","wind_direction":"215","humidity":"","traffic_recent":"","traffic_today":"","updated_at":"2026-10-06T18:40:00Z","map_label":"7°\n↙ 2.4 m/s","has_traffic":false},"geometry":{"type":"Point","coordinates":[-21.932,64.534]}},{"type":"Feature","properties":{"id":"IRCA_MP_1124","name":"Húsavík","temperature":"","road_temperature":"","wind_speed":"4.5","wind_gust":"6.2","wind_direction":"108","humidity":"","traffic_recent":"","traffic_today":"","updated_at":"2026-10-06T18:20:00Z","map_label":"→ 4.5 m/s","has_traffic":false},"geometry":{"type":"Point","coordinates":[-17.354242,66.04505]}},{"type":"Feature","properties":{"id":"IRCA_MP_1137","name":"Básasker","temperature":"7.6","road_temperature":"","wind_speed":"1.9","wind_gust":"3.7","wind_direction":"120","humidity":"","traffic_recent":"","traffic_today":"","updated_at":"2026-10-06T18:20:00Z","map_label":"7.6°\n↘ 1.9 m/s","has_traffic":false},"geometry":{"type":"Point","coordinates":[-20.273,63.44483]}},{"type":"Feature","properties":{"id":"IRCA_MP_1140","name":"Þorlákshöfn","temperature":"6.9","road_temperature":"","wind_speed":"1","wind_gust":"1.7","wind_direction":"9","humidity":"","traffic_recent":"","traffic_today":"","updated_at":"2026-10-06T18:20:00Z","map_label":"6.9°\n↑ 1 m/s","has_traffic":false},"geometry":{"type":"Point","coordinates":[-21.371637,63.85932]}},{"type":"Feature","properties":{"id":"IRCA_MP_1123","name":"Hvanney","temperature":"5.7","road_temperature":"","wind_speed":"5.4","wind_gust":"8.3","wind_direction":"49","humidity":"","traffic_recent":"","traffic_today":"","updated_at":"2026-10-06T18:40:00Z","map_label":"5.7°\n↗ 5.4 m/s","has_traffic":false},"geometry":{"type":"Point","coordinates":[-15.200299,64.23191]}},{"type":"Feature","properties":{"id":"IRCA_MP_1142","name":"Sundahöfn","temperature":"7.8","road_temperature":"","wind_speed":"0.8","wind_gust":"1.3","wind_direction":"116","humidity":"","traffic_recent":"","traffic_today":"","updated_at":"2026-10-06T18:40:00Z","map_label":"7.8°\n↘ 0.8 m/s","has_traffic":false},"geometry":{"type":"Point","coordinates":[-21.864817,64.157814]}},{"type":"Feature","properties":{"id":"IRCA_MP_1128","name":"Ólafsvík","temperature":"6.1","road_temperature":"","wind_speed":"4.2","wind_gust":"6.6","wind_direction":"197","humidity":"","traffic_recent":"","traffic_today":"","updated_at":"2026-10-06T18:40:00Z","map_label":"6.1°\n↓ 4.2 m/s","has_traffic":false},"geometry":{"type":"Point","coordinates":[-23.701468,64.89778]}},{"type":"Feature","properties":{"id":"IRCA_MP_1159","name":"Akranes","temperature":"7.8","road_temperature":"","wind_speed":"0.8","wind_gust":"1.3","wind_direction":"282","humidity":"","traffic_recent":"","traffic_today":"","updated_at":"2026-10-06T18:20:00Z","map_label":"7.8°\n← 0.8 m/s","has_traffic":false},"geometry":{"type":"Point","coordinates":[-22.078733,64.31322]}},{"type":"Feature","properties":{"id":"IRCA_MP_1119","name":"Grindavík","temperature":"7.4","road_temperature":"","wind_speed":"0.9","wind_gust":"1.3","wind_direction":"288","humidity":"","traffic_recent":"","traffic_today":"","updated_at":"2026-10-06T18:20:00Z","map_label":"7.4°\n← 0.9 m/s","has_traffic":false},"geometry":{"type":"Point","coordinates":[-22.428898,63.838013]}},{"type":"Feature","properties":{"id":"IRCA_MP_1176","name":"Landeyjahöfn","temperature":"6.9","road_temperature":"","wind_speed":"2.5","wind_gust":"3.6","wind_direction":"343","humidity":"77.3","traffic_recent":"","traffic_today":"","updated_at":"2026-10-06T18:20:00Z","map_label":"6.9°\n↑ 2.5 m/s","has_traffic":false},"geometry":{"type":"Point","coordinates":[-20.1182,63.5322]}},{"type":"Feature","properties":{"id":"IRCA_MP_1141","name":"Miðbakki","temperature":"7.4","road_temperature":"","wind_speed":"2.3","wind_gust":"2.9","wind_direction":"32","humidity":"","traffic_recent":"","traffic_today":"","updated_at":"2026-10-06T18:20:00Z","map_label":"7.4°\n↗ 2.3 m/s","has_traffic":false},"geometry":{"type":"Point","coordinates":[-21.9424,64.1508]}},{"type":"Feature","properties":{"id":"IRCA_MP_1131","name":"Sandgerði","temperature":"6.2","road_temperature":"","wind_speed":"2.8","wind_gust":"3.3","wind_direction":"164","humidity":"","traffic_recent":"","traffic_today":"","updated_at":"2026-10-06T18:40:00Z","map_label":"6.2°\n↓ 2.8 m/s","has_traffic":false},"geometry":{"type":"Point","coordinates":[-22.716848,64.03815]}},{"type":"Feature","properties":{"id":"IRCA_MP_1135","name":"Skagaströnd","temperature":"4.9","road_temperature":"","wind_speed":"0.4","wind_gust":"1.7","wind_direction":"172","humidity":"","traffic_recent":"","traffic_today":"","updated_at":"2026-10-06T18:40:00Z","map_label":"4.9°\n↓ 0.4 m/s","has_traffic":false},"geometry":{"type":"Point","coordinates":[-20.317947,65.82396]}},{"type":"Feature","properties":{"id":"IRCA_MP_1174","name":"Grundartangi","temperature":"5.8","road_temperature":"","wind_speed":"0.6","wind_gust":"1.1","wind_direction":"236","humidity":"","traffic_recent":"","traffic_today":"","updated_at":"2026-10-06T18:40:00Z","map_label":"5.8°\n↙ 0.6 m/s","has_traffic":false},"geometry":{"type":"Point","coordinates":[-21.776684,64.35685]}},{"type":"Feature","properties":{"id":"IRCA_MP_30","name":"Breiðdalsheiði","temperature":"-0.4","road_temperature":"2.3","wind_speed":"1","wind_gust":"1.5","wind_direction":"76","humidity":"100","traffic_recent":"0","traffic_today":"58","updated_at":"2026-10-06T18:50:00Z","map_label":"-0.4°\n→ 1 m/s\n🚗 0 / 58","has_traffic":true},"geometry":{"type":"Point","coordinates":[-14.6035,64.90697]}},{"type":"Feature","properties":{"id":"IRCA_MP_77","name":"Hafursfell","temperature":"5.6","road_temperature":"5.1","wind_speed":"0.7","wind_gust":"1.1","wind_direction":"85","humidity":"63.2","traffic_recent":"17","traffic_today":"1380","updated_at":"2026-10-06T18:50:00Z","map_label":"5.6°\n→ 0.7 m/s\n🚗 17 / 1380","has_traffic":true},"geometry":{"type":"Point","coordinates":[-22.532818,64.830986]}},{"type":"Feature","properties":{"id":"IRCA_MP_32","name":"Ögur","temperature":"6.4","road_temperature":"6.6","wind_speed":"3.9","wind_gust":"4.6","wind_direction":"173","humidity":"67.1","traffic_recent":"3","traffic_today":"110","updated_at":"2026-10-06T18:50:00Z","map_label":"6.4°\n↓ 3.9 m/s\n🚗 3 / 110","has_traffic":true},"geometry":{"type":"Point","coordinates":[-22.685694,66.042046]}},{"type":"Feature","properties":{"id":"IRCA_MP_35","name":"Skálholt","temperature":"3.6","road_temperature":"7.2","wind_speed":"0.9","wind_gust":"1.6","wind_direction":"357","humidity":"78.6","traffic_recent":"","traffic_today":"","updated_at":"2026-10-06T18:50:00Z","map_label":"3.6°\n↑ 0.9 m/s","has_traffic":false},"geometry":{"type":"Point","coordinates":[-20.530783,64.132286]}},{"type":"Feature","properties":{"id":"IRCA_MP_6","name":"Mýrdalssandur","temperature":"5.5","road_temperature":"5.4","wind_speed":"3.5","wind_gust":"4.9","wind_direction":"47","humidity":"100","traffic_recent":"27","traffic_today":"1813","updated_at":"2026-10-06T18:50:00Z","map_label":"5.5°\n↗ 3.5 m/s\n🚗 27 / 1813","has_traffic":true},"geometry":{"type":"Point","coordinates":[-18.609566,63.463676]}},{"type":"Feature","properties":{"id":"IRCA_MP_10","name":"Siglufjarðarvegur","temperature":"4.5","road_temperature":"1.6","wind_speed":"0.5","wind_gust":"1.5","wind_direction":"86","humidity":"68.7","traffic_recent":"3","traffic_today":"173","updated_at":"2026-10-06T18:50:00Z","map_label":"4.5°\n→ 0.5 m/s\n🚗 3 / 173","has_traffic":true},"geometry":{"type":"Point","coordinates":[-19.0724,66.128914]}},{"type":"Feature","properties":{"id":"IRCA_MP_14","name":"Reykjanesbraut","temperature":"4.8","road_temperature":"5.8","wind_speed":"1.2","wind_gust":"1.6","wind_direction":"181","humidity":"72.5","traffic_recent":"260","traffic_today":"19934","updated_at":"2026-10-06T18:50:00Z","map_label":"4.8°\n↓ 1.2 m/s\n🚗 260 / 19934","has_traffic":true},"geometry":{"type":"Point","coordinates":[-22.22985,64.00243]}},{"type":"Feature","properties":{"id":"IRCA_MP_18","name":"Gjábakki","temperature":"2.6","road_temperature":"2.1","wind_speed":"0.8","wind_gust":"1.3","wind_direction":"74","humidity":"85.5","traffic_recent":"21","traffic_today":"1725","updated_at":"2026-10-06T18:50:00Z","map_label":"2.6°\n→ 0.8 m/s\n🚗 21 / 1725","has_traffic":true},"geometry":{"type":"Point","coordinates":[-21.023033,64.248116]}},{"type":"Feature","properties":{"id":"IRCA_MP_20","name":"Fremri-Háls","temperature":"0.9","road_temperature":"3.8","wind_speed":"5","wind_gust":"6","wind_direction":"139","humidity":"93.4","traffic_recent":"0","traffic_today":"80","updated_at":"2026-10-06T18:50:00Z","map_label":"0.9°\n↘ 5 m/s\n🚗 0 / 80","has_traffic":true},"geometry":{"type":"Point","coordinates":[-15.81625,66.25312]}},{"type":"Feature","properties":{"id":"IRCA_MP_55","name":"Vatnaleið","temperature":"1.4","road_temperature":"4.6","wind_speed":"2.8","wind_gust":"3.1","wind_direction":"130","humidity":"89.2","traffic_recent":"19","traffic_today":"747","updated_at":"2026-10-06T18:50:00Z","map_label":"1.4°\n↘ 2.8 m/s\n🚗 19 / 747","has_traffic":true},"geometry":{"type":"Point","coordinates":[-22.85795,64.90575]}},{"type":"Feature","properties":{"id":"IRCA_MP_54","name":"Gullfoss","temperature":"2.3","road_temperature":"4.8","wind_speed":"1.8","wind_gust":"2.7","wind_direction":"82","humidity":"90.4","traffic_recent":"24","traffic_today":"2190","updated_at":"2026-10-06T18:50:00Z","map_label":"2.3°\n→ 1.8 m/s\n🚗 24 / 2190","has_traffic":true},"geometry":{"type":"Point","coordinates":[-20.212017,64.30767]}},{"type":"Feature","properties":{"id":"IRCA_MP_29","name":"Steinar undir Eyjafjöllum","temperature":"6.8","road_temperature":"10.4","wind_speed":"0.9","wind_gust":"1.9","wind_direction":"327","humidity":"79.4","traffic_recent":"37","traffic_today":"2783","updated_at":"2026-10-06T18:50:00Z","map_label":"6.8°\n↖ 0.9 m/s\n🚗 37 / 2783","has_traffic":true},"geometry":{"type":"Point","coordinates":[-19.6906,63.5428]}},{"type":"Feature","properties":{"id":"IRCA_MP_33","name":"Sandvíkurheiði","temperature":"0.2","road_temperature":"2.8","wind_speed":"1.7","wind_gust":"2.3","wind_direction":"192","humidity":"85.4","traffic_recent":"1","traffic_today":"82","updated_at":"2026-10-06T18:50:00Z","map_label":"0.2°\n↓ 1.7 m/s\n🚗 1 / 82","has_traffic":true},"geometry":{"type":"Point","coordinates":[-14.825417,65.89143]}},{"type":"Feature","properties":{"id":"IRCA_MP_37","name":"Brattabrekka","temperature":"2.5","road_temperature":"2.4","wind_speed":"1.1","wind_gust":"2.2","wind_direction":"195","humidity":"74.8","traffic_recent":"8","traffic_today":"414","updated_at":"2026-10-06T18:50:00Z","map_label":"2.5°\n↓ 1.1 m/s\n🚗 8 / 414","has_traffic":true},"geometry":{"type":"Point","coordinates":[-21.5169,64.86877]}},{"type":"Feature","properties":{"id":"IRCA_MP_58","name":"Þverárfjall","temperature":"3.3","road_temperature":"4.8","wind_speed":"0.7","wind_gust":"1.8","wind_direction":"209","humidity":"73.8","traffic_recent":"3","traffic_today":"426","updated_at":"2026-10-06T18:50:00Z","map_label":"3.3°\n↙ 0.7 m/s\n🚗 3 / 426","has_traffic":true},"geometry":{"type":"Point","coordinates":[-20.018566,65.78008]}},{"type":"Feature","properties":{"id":"IRCA_MP_61","name":"Kolgrafafjörður","temperature":"5.8","road_temperature":"6.2","wind_speed":"1.4","wind_gust":"2","wind_direction":"125","humidity":"61.1","traffic_recent":"10","traffic_today":"857","updated_at":"2026-10-06T18:50:00Z","map_label":"5.8°\n↘ 1.4 m/s\n🚗 10 / 857","has_traffic":true},"geometry":{"type":"Point","coordinates":[-23.126154,64.966385]}},{"type":"Feature","properties":{"id":"IRCA_MP_62","name":"Öxi","temperature":"-0.2","road_temperature":"2","wind_speed":"0.5","wind_gust":"1","wind_direction":"246","humidity":"100","traffic_recent":"3","traffic_today":"337","updated_at":"2026-10-06T18:50:00Z","map_label":"-0.2°\n↙ 0.5 m/s\n🚗 3 / 337","has_traffic":true},"geometry":{"type":"Point","coordinates":[-14.657317,64.82573]}},{"type":"Feature","properties":{"id":"IRCA_MP_100","name":"Selvogur","temperature":"1.8","road_temperature":"6","wind_speed":"3.1","wind_gust":"3.4","wind_direction":"52","humidity":"90.4","traffic_recent":"9","traffic_today":"936","updated_at":"2026-10-06T18:50:00Z","map_label":"1.8°\n↗ 3.1 m/s\n🚗 9 / 936","has_traffic":true},"geometry":{"type":"Point","coordinates":[-21.696283,63.845634]}},{"type":"Feature","properties":{"id":"IRCA_MP_103","name":"Stafá","temperature":"3.4","road_temperature":"","wind_speed":"0","wind_gust":"0.4","wind_direction":"178","humidity":"65.5","traffic_recent":"","traffic_today":"","updated_at":"2026-10-06T18:50:00Z","map_label":"3.4°\n↓ 0 m/s","has_traffic":false},"geometry":{"type":"Point","coordinates":[-19.27845,66.07108]}},{"type":"Feature","properties":{"id":"IRCA_MP_105","name":"Eldhraun","temperature":"5.2","road_temperature":"6.4","wind_speed":"0.8","wind_gust":"1.3","wind_direction":"22","humidity":"96","traffic_recent":"28","traffic_today":"1923","updated_at":"2026-10-06T18:50:00Z","map_label":"5.2°\n↑ 0.8 m/s\n🚗 28 / 1923","has_traffic":true},"geometry":{"type":"Point","coordinates":[-18.197718,63.73377]}},{"type":"Feature","properties":{"id":"IRCA_MP_108","name":"Miðsitja","temperature":"2.8","road_temperature":"4.3","wind_speed":"5.2","wind_gust":"6.9","wind_direction":"136","humidity":"67.9","traffic_recent":"11","traffic_today":"1104","updated_at":"2026-10-06T18:50:00Z","map_label":"2.8°\n↘ 5.2 m/s\n🚗 11 / 1104","has_traffic":true},"geometry":{"type":"Point","coordinates":[-19.286283,65.4901]}},{"type":"Feature","properties":{"id":"IRCA_MP_73","name":"Króksfjörður","temperature":"5","road_temperature":"5.5","wind_speed":"0","wind_gust":"0.3","wind_direction":"91","humidity":"77.9","traffic_recent":"5","traffic_today":"263","updated_at":"2026-10-06T18:50:00Z","map_label":"5°\n→ 0 m/s\n🚗 5 / 263","has_traffic":true},"geometry":{"type":"Point","coordinates":[-22.023382,65.52772]}},{"type":"Feature","properties":{"id":"IRCA_MP_59","name":"Tjörnes","temperature":"1","road_temperature":"1.7","wind_speed":"2.7","wind_gust":"3.2","wind_direction":"186","humidity":"74.5","traffic_recent":"2","traffic_today":"228","updated_at":"2026-10-06T18:50:00Z","map_label":"1°\n↓ 2.7 m/s\n🚗 2 / 228","has_traffic":true},"geometry":{"type":"Point","coordinates":[-16.975367,66.14868]}},{"type":"Feature","properties":{"id":"IRCA_MP_39","name":"Ennisháls","temperature":"4.3","road_temperature":"4.1","wind_speed":"2.7","wind_gust":"3.4","wind_direction":"199","humidity":"73.5","traffic_recent":"0","traffic_today":"51","updated_at":"2026-10-06T18:50:00Z","map_label":"4.3°\n↓ 2.7 m/s\n🚗 0 / 51","has_traffic":true},"geometry":{"type":"Point","coordinates":[-21.329351,65.572464]}},{"type":"Feature","properties":{"id":"IRCA_MP_79","name":"Norðan Reynisfjalls","temperature":"5.8","road_temperature":"7.3","wind_speed":"5.9","wind_gust":"10.8","wind_direction":"76","humidity":"89.6","traffic_recent":"","traffic_today":"","updated_at":"2026-10-06T18:50:00Z","map_label":"5.8°\n→ 5.9 m/s","has_traffic":false},"geometry":{"type":"Point","coordinates":[-19.037916,63.452034]}},{"type":"Feature","properties":{"id":"IRCA_MP_60","name":"Þjórsá","temperature":"3.9","road_temperature":"5.9","wind_speed":"0.8","wind_gust":"1.5","wind_direction":"329","humidity":"85.3","traffic_recent":"67","traffic_today":"4853","updated_at":"2026-10-06T18:50:00Z","map_label":"3.9°\n↖ 0.8 m/s\n🚗 67 / 4853","has_traffic":true},"geometry":{"type":"Point","coordinates":[-20.66615,63.930984]}},{"type":"Feature","properties":{"id":"IRCA_MP_78","name":"Miklidalur","temperature":"2.7","road_temperature":"4.3","wind_speed":"4.2","wind_gust":"5.4","wind_direction":"193","humidity":"79.7","traffic_recent":"","traffic_today":"","updated_at":"2026-10-06T18:50:00Z","map_label":"2.7°\n↓ 4.2 m/s","has_traffic":false},"geometry":{"type":"Point","coordinates":[-23.8552,65.5807]}},{"type":"Feature","properties":{"id":"IRCA_MP_70","name":"Hámundarstaðaháls","temperature":"3.4","road_temperature":"5.5","wind_speed":"0.7","wind_gust":"1.5","wind_direction":"158","humidity":"65.5","traffic_recent":"10","traffic_today":"1290","updated_at":"2026-10-06T18:50:00Z","map_label":"3.4°\n↓ 0.7 m/s\n🚗 10 / 1290","has_traffic":true},"geometry":{"type":"Point","coordinates":[-18.459284,65.95175]}},{"type":"Feature","properties":{"id":"IRCA_MP_57","name":"Kvísker","temperature":"5.3","road_temperature":"6.6","wind_speed":"5","wind_gust":"6.2","wind_direction":"350","humidity":"95.8","traffic_recent":"20","traffic_today":"2035","updated_at":"2026-10-06T18:50:00Z","map_label":"5.3°\n↑ 5 m/s\n🚗 20 / 2035","has_traffic":true},"geometry":{"type":"Point","coordinates":[-16.424433,63.959633]}},{"type":"Feature","properties":{"id":"IRCA_MP_66","name":"Biskupsháls","temperature":"-1.4","road_temperature":"-1","wind_speed":"3","wind_gust":"3.6","wind_direction":"141","humidity":"98.7","traffic_recent":"9","traffic_today":"654","updated_at":"2026-10-06T18:50:00Z","map_label":"-1.4°\n↘ 3 m/s\n🚗 9 / 654","has_traffic":true},"geometry":{"type":"Point","coordinates":[-16.0114,65.55835]}},{"type":"Feature","properties":{"id":"IRCA_MP_71","name":"Streiti","temperature":"4.4","road_temperature":"4.6","wind_speed":"1.8","wind_gust":"2.5","wind_direction":"36","humidity":"84.5","traffic_recent":"1","traffic_today":"375","updated_at":"2026-10-06T18:50:00Z","map_label":"4.4°\n↗ 1.8 m/s\n🚗 1 / 375","has_traffic":true},"geometry":{"type":"Point","coordinates":[-14.036117,64.71997]}},{"type":"Feature","properties":{"id":"IRCA_MP_76","name":"Gemlufallsheiði","temperature":"5.2","road_temperature":"5.4","wind_speed":"4.1","wind_gust":"6.4","wind_direction":"207","humidity":"71.8","traffic_recent":"5","traffic_today":"319","updated_at":"2026-10-06T18:50:00Z","map_label":"5.2°\n↙ 4.1 m/s\n🚗 5 / 319","has_traffic":true},"geometry":{"type":"Point","coordinates":[-23.4364,65.94062]}},{"type":"Feature","properties":{"id":"IRCA_MP_74","name":"Við Markarfljót","temperature":"4.4","road_temperature":"7.7","wind_speed":"1.1","wind_gust":"1.8","wind_direction":"7","humidity":"85.2","traffic_recent":"50","traffic_today":"3186","updated_at":"2026-10-06T18:50:00Z","map_label":"4.4°\n↑ 1.1 m/s\n🚗 50 / 3186","has_traffic":true},"geometry":{"type":"Point","coordinates":[-20.028517,63.621567]}},{"type":"Feature","properties":{"id":"IRCA_MP_63","name":"Ingólfsfjall","temperature":"5","road_temperature":"0.8","wind_speed":"0.3","wind_gust":"1.1","wind_direction":"253","humidity":"72.8","traffic_recent":"177","traffic_today":"10922","updated_at":"2026-10-06T18:50:00Z","map_label":"5°\n← 0.3 m/s\n🚗 177 / 10922","has_traffic":true},"geometry":{"type":"Point","coordinates":[-21.049152,63.95602]}},{"type":"Feature","properties":{"id":"IRCA_MP_1","name":"Hellisheiði","temperature":"2.7","road_temperature":"3.8","wind_speed":"0.8","wind_gust":"1.4","wind_direction":"341","humidity":"89.4","traffic_recent":"109","traffic_today":"10054","updated_at":"2026-10-06T18:50:00Z","map_label":"2.7°\n↑ 0.8 m/s\n🚗 109 / 10054","has_traffic":true},"geometry":{"type":"Point","coordinates":[-21.34235,64.019035]}},{"type":"Feature","properties":{"id":"IRCA_MP_4","name":"Öxnadalsheiði","temperature":"-1","road_temperature":"0.1","wind_speed":"0.5","wind_gust":"1.1","wind_direction":"133","humidity":"77.1","traffic_recent":"13","traffic_today":"1045","updated_at":"2026-10-06T18:50:00Z","map_label":"-1°\n↘ 0.5 m/s\n🚗 13 / 1045","has_traffic":true},"geometry":{"type":"Point","coordinates":[-18.698816,65.46765]}},{"type":"Feature","properties":{"id":"IRCA_MP_7","name":"Fjarðarheiði","temperature":"-2.2","road_temperature":"0.6","wind_speed":"4.7","wind_gust":"5.3","wind_direction":"146","humidity":"83.6","traffic_recent":"5","traffic_today":"693","updated_at":"2026-10-06T18:50:00Z","map_label":"-2.2°\n↘ 4.7 m/s\n🚗 5 / 693","has_traffic":true},"geometry":{"type":"Point","coordinates":[-14.25885,65.26611]}},{"type":"Feature","properties":{"id":"IRCA_MP_11","name":"Oddsskarð","temperature":"-0.4","road_temperature":"","wind_speed":"1.8","wind_gust":"3.3","wind_direction":"355","humidity":"81","traffic_recent":"","traffic_today":"","updated_at":"2026-10-06T18:50:00Z","map_label":"-0.4°\n↑ 1.8 m/s","has_traffic":false},"geometry":{"type":"Point","coordinates":[-13.918633,65.0637]}},{"type":"Feature","properties":{"id":"IRCA_MP_12","name":"Hafnarfjall","temperature":"4.5","road_temperature":"7.5","wind_speed":"2.1","wind_gust":"2.5","wind_direction":"171","humidity":"74.8","traffic_recent":"47","traffic_today":"4041","updated_at":"2026-10-06T18:50:00Z","map_label":"4.5°\n↓ 2.1 m/s\n🚗 47 / 4041","has_traffic":true},"geometry":{"type":"Point","coordinates":[-21.960266,64.47555]}},{"type":"Feature","properties":{"id":"IRCA_MP_13","name":"Hálfdán","temperature":"1.7","road_temperature":"3.5","wind_speed":"5.3","wind_gust":"7.3","wind_direction":"199","humidity":"91","traffic_recent":"3","traffic_today":"273","updated_at":"2026-10-06T18:50:00Z","map_label":"1.7°\n↓ 5.3 m/s\n🚗 3 / 273","has_traffic":true},"geometry":{"type":"Point","coordinates":[-23.710684,65.64436]}},{"type":"Feature","properties":{"id":"IRCA_MP_19","name":"Víkurskarð","temperature":"0.8","road_temperature":"3.1","wind_speed":"3.8","wind_gust":"4.9","wind_direction":"132","humidity":"68.9","traffic_recent":"3","traffic_today":"458","updated_at":"2026-10-06T18:50:00Z","map_label":"0.8°\n↘ 3.8 m/s\n🚗 3 / 458","has_traffic":true},"geometry":{"type":"Point","coordinates":[-17.99135,65.81402]}},{"type":"Feature","properties":{"id":"IRCA_MP_21","name":"Sandfell í Öræfum","temperature":"5.5","road_temperature":"8","wind_speed":"2.1","wind_gust":"2.7","wind_direction":"349","humidity":"81.4","traffic_recent":"25","traffic_today":"2088","updated_at":"2026-10-06T18:50:00Z","map_label":"5.5°\n↑ 2.1 m/s\n🚗 25 / 2088","has_traffic":true},"geometry":{"type":"Point","coordinates":[-16.7959,63.9387]}},{"type":"Feature","properties":{"id":"IRCA_MP_22","name":"Fróðárheiði","temperature":"1.3","road_temperature":"2.4","wind_speed":"2.8","wind_gust":"3.6","wind_direction":"135","humidity":"82.3","traffic_recent":"4","traffic_today":"486","updated_at":"2026-10-06T18:50:00Z","map_label":"1.3°\n↘ 2.8 m/s\n🚗 4 / 486","has_traffic":true},"geometry":{"type":"Point","coordinates":[-23.481318,64.84817]}},{"type":"Feature","properties":{"id":"IRCA_MP_53","name":"Hvammur undir Eyjafjöllum","temperature":"7.3","road_temperature":"9.1","wind_speed":"3.3","wind_gust":"5","wind_direction":"357","humidity":"67.1","traffic_recent":"43","traffic_today":"2961","updated_at":"2026-10-06T18:50:00Z","map_label":"7.3°\n↑ 3.3 m/s\n🚗 43 / 2961","has_traffic":true},"geometry":{"type":"Point","coordinates":[-19.901684,63.578365]}},{"type":"Feature","properties":{"id":"IRCA_MP_86","name":"Kolás","temperature":"4","road_temperature":"6.7","wind_speed":"1.4","wind_gust":"2.1","wind_direction":"313","humidity":"73.5","traffic_recent":"21","traffic_today":"1605","updated_at":"2026-10-06T18:50:00Z","map_label":"4°\n↖ 1.4 m/s\n🚗 21 / 1605","has_traffic":true},"geometry":{"type":"Point","coordinates":[-21.6359,64.695564]}},{"type":"Feature","properties":{"id":"IRCA_MP_24","name":"Vatnsskarð","temperature":"1.8","road_temperature":"1.8","wind_speed":"4.3","wind_gust":"5.1","wind_direction":"159","humidity":"81.3","traffic_recent":"11","traffic_today":"883","updated_at":"2026-10-06T18:50:00Z","map_label":"1.8°\n↓ 4.3 m/s\n🚗 11 / 883","has_traffic":true},"geometry":{"type":"Point","coordinates":[-19.695124,65.50903]}},{"type":"Feature","properties":{"id":"IRCA_MP_25","name":"Hólasandur","temperature":"-0.4","road_temperature":"1.8","wind_speed":"2.6","wind_gust":"3.1","wind_direction":"134","humidity":"84.5","traffic_recent":"3","traffic_today":"224","updated_at":"2026-10-06T18:50:00Z","map_label":"-0.4°\n↘ 2.6 m/s\n🚗 3 / 224","has_traffic":true},"geometry":{"type":"Point","coordinates":[-17.105734,65.7374]}},{"type":"Feature","properties":{"id":"IRCA_MP_26","name":"Fagridalur","temperature":"-2.9","road_temperature":"0.2","wind_speed":"0","wind_gust":"0.1","wind_direction":"195","humidity":"95.7","traffic_recent":"16","traffic_today":"1222","updated_at":"2026-10-06T18:50:00Z","map_label":"-2.9°\n↓ 0 m/s\n🚗 16 / 1222","has_traffic":true},"geometry":{"type":"Point","coordinates":[-14.3344,65.126564]}},{"type":"Feature","properties":{"id":"IRCA_MP_27","name":"Kleifaheiði","temperature":"0.7","road_temperature":"3.8","wind_speed":"2.9","wind_gust":"3.4","wind_direction":"136","humidity":"99.2","traffic_recent":"2","traffic_today":"181","updated_at":"2026-10-06T18:50:00Z","map_label":"0.7°\n↘ 2.9 m/s\n🚗 2 / 181","has_traffic":true},"geometry":{"type":"Point","coordinates":[-23.721132,65.51713]}},{"type":"Feature","properties":{"id":"IRCA_MP_38","name":"Blönduós","temperature":"4.2","road_temperature":"2.5","wind_speed":"0.9","wind_gust":"1.8","wind_direction":"125","humidity":"72.8","traffic_recent":"9","traffic_today":"970","updated_at":"2026-10-06T18:50:00Z","map_label":"4.2°\n↘ 0.9 m/s\n🚗 9 / 970","has_traffic":true},"geometry":{"type":"Point","coordinates":[-20.23825,65.66675]}},{"type":"Feature","properties":{"id":"IRCA_MP_40","name":"Mývatnsöræfi","temperature":"-1.2","road_temperature":"1.5","wind_speed":"2.8","wind_gust":"3.1","wind_direction":"177","humidity":"83.5","traffic_recent":"9","traffic_today":"684","updated_at":"2026-10-06T18:50:00Z","map_label":"-1.2°\n↓ 2.8 m/s\n🚗 9 / 684","has_traffic":true},"geometry":{"type":"Point","coordinates":[-16.5005,65.657585]}},{"type":"Feature","properties":{"id":"IRCA_MP_102","name":"Botn í Súgandafirði","temperature":"7.3","road_temperature":"","wind_speed":"2.7","wind_gust":"4","wind_direction":"153","humidity":"66.2","traffic_recent":"","traffic_today":"","updated_at":"2026-10-06T18:30:00Z","map_label":"7.3°\n↘ 2.7 m/s","has_traffic":false},"geometry":{"type":"Point","coordinates":[-23.3733,66.08083]}},{"type":"Feature","properties":{"id":"IRCA_MP_104","name":"Kaldakinn","temperature":"0.6","road_temperature":"","wind_speed":"0.4","wind_gust":"1.1","wind_direction":"167","humidity":"78.6","traffic_recent":"","traffic_today":"","updated_at":"2026-10-06T18:50:00Z","map_label":"0.6°\n↓ 0.4 m/s","has_traffic":false},"geometry":{"type":"Point","coordinates":[-17.592,65.742615]}},{"type":"Feature","properties":{"id":"IRCA_MP_106","name":"Gígjukvísl","temperature":"5.3","road_temperature":"7.2","wind_speed":"1.8","wind_gust":"2.5","wind_direction":"142","humidity":"91.7","traffic_recent":"23","traffic_today":"1857","updated_at":"2026-10-06T18:50:00Z","map_label":"5.3°\n↘ 1.8 m/s\n🚗 23 / 1857","has_traffic":true},"geometry":{"type":"Point","coordinates":[-17.350267,63.93622]}},{"type":"Feature","properties":{"id":"IRCA_MP_107","name":"Hvaldalsá","temperature":"5.1","road_temperature":"6.8","wind_speed":"2.8","wind_gust":"4","wind_direction":"14","humidity":"83.6","traffic_recent":"","traffic_today":"","updated_at":"2026-10-06T18:50:00Z","map_label":"5.1°\n↑ 2.8 m/s","has_traffic":false},"geometry":{"type":"Point","coordinates":[-14.537583,64.4202]}},{"type":"Feature","properties":{"id":"IRCA_MP_64","name":"Gauksmýri","temperature":"1","road_temperature":"4.8","wind_speed":"0.5","wind_gust":"2.7","wind_direction":"357","humidity":"85.4","traffic_recent":"26","traffic_today":"1280","updated_at":"2026-10-06T18:50:00Z","map_label":"1°\n↑ 0.5 m/s\n🚗 26 / 1280","has_traffic":true},"geometry":{"type":"Point","coordinates":[-20.803984,65.34441]}},{"type":"Feature","properties":{"id":"IRCA_MP_72","name":"Akrafjall","temperature":"5.9","road_temperature":"7.3","wind_speed":"1.1","wind_gust":"1.4","wind_direction":"76","humidity":"74.4","traffic_recent":"33","traffic_today":"4528","updated_at":"2026-10-06T18:50:00Z","map_label":"5.9°\n→ 1.1 m/s\n🚗 33 / 4528","has_traffic":true},"geometry":{"type":"Point","coordinates":[-21.957783,64.31053]}},{"type":"Feature","properties":{"id":"IRCA_MP_44","name":"Hraunsmúli í Staðarsveit","temperature":"4","road_temperature":"5.5","wind_speed":"2.7","wind_gust":"2.9","wind_direction":"67","humidity":"67.7","traffic_recent":"8","traffic_today":"866","updated_at":"2026-10-06T18:50:00Z","map_label":"4°\n↗ 2.7 m/s\n🚗 8 / 866","has_traffic":true},"geometry":{"type":"Point","coordinates":[-23.19026,64.82201]}},{"type":"Feature","properties":{"id":"IRCA_MP_48","name":"Klettsháls","temperature":"3.6","road_temperature":"4.9","wind_speed":"0.4","wind_gust":"0.8","wind_direction":"219","humidity":"88.1","traffic_recent":"","traffic_today":"","updated_at":"2026-10-06T18:30:00Z","map_label":"3.6°\n↙ 0.4 m/s","has_traffic":false},"geometry":{"type":"Point","coordinates":[-22.61095,65.65665]}},{"type":"Feature","properties":{"id":"IRCA_MP_50","name":"Hvalnes","temperature":"4.9","road_temperature":"6.8","wind_speed":"6","wind_gust":"7.8","wind_direction":"13","humidity":"84.5","traffic_recent":"9","traffic_today":"645","updated_at":"2026-10-06T18:50:00Z","map_label":"4.9°\n↑ 6 m/s\n🚗 9 / 645","has_traffic":true},"geometry":{"type":"Point","coordinates":[-14.539117,64.407364]}},{"type":"Feature","properties":{"id":"IRCA_MP_51","name":"Laxárdalsheiði","temperature":"3.5","road_temperature":"4.1","wind_speed":"2.4","wind_gust":"3","wind_direction":"241","humidity":"73.3","traffic_recent":"0","traffic_today":"","updated_at":"2026-10-06T18:50:00Z","map_label":"3.5°\n↙ 2.4 m/s\n🚗 0 / —","has_traffic":true},"geometry":{"type":"Point","coordinates":[-21.327211,65.20681]}},{"type":"Feature","properties":{"id":"IRCA_MP_87","name":"Jökuldalur","temperature":"-0.8","road_temperature":"-2.2","wind_speed":"2.4","wind_gust":"3.2","wind_direction":"62","humidity":"83.5","traffic_recent":"5","traffic_today":"700","updated_at":"2026-10-06T18:50:00Z","map_label":"-0.8°\n↗ 2.4 m/s\n🚗 5 / 700","has_traffic":true},"geometry":{"type":"Point","coordinates":[-15.223733,65.30195]}},{"type":"Feature","properties":{"id":"IRCA_MP_88","name":"Hauksstaðir í Vesturárdal","temperature":"-2.4","road_temperature":"0.4","wind_speed":"1.5","wind_gust":"2.1","wind_direction":"264","humidity":"87.3","traffic_recent":"1","traffic_today":"93","updated_at":"2026-10-06T18:50:00Z","map_label":"-2.4°\n← 1.5 m/s\n🚗 1 / 93","has_traffic":true},"geometry":{"type":"Point","coordinates":[-15.165183,65.65707]}},{"type":"Feature","properties":{"id":"IRCA_MP_56","name":"Svínadalur í Dalasýslu","temperature":"2.5","road_temperature":"4.4","wind_speed":"0","wind_gust":"0","wind_direction":"0","humidity":"77.8","traffic_recent":"7","traffic_today":"446","updated_at":"2026-10-06T18:50:00Z","map_label":"2.5°\n↑ 0 m/s\n🚗 7 / 446","has_traffic":true},"geometry":{"type":"Point","coordinates":[-21.740252,65.30563]}},{"type":"Feature","properties":{"id":"IRCA_MP_81","name":"Búlandshöfði","temperature":"4.5","road_temperature":"7.2","wind_speed":"4.8","wind_gust":"6.2","wind_direction":"151","humidity":"70.8","traffic_recent":"10","traffic_today":"851","updated_at":"2026-10-06T18:50:00Z","map_label":"4.5°\n↘ 4.8 m/s\n🚗 10 / 851","has_traffic":true},"geometry":{"type":"Point","coordinates":[-23.50335,64.93657]}},{"type":"Feature","properties":{"id":"IRCA_MP_82","name":"Lyngdalsheiði","temperature":"3.5","road_temperature":"4.5","wind_speed":"1.9","wind_gust":"2.3","wind_direction":"303","humidity":"87","traffic_recent":"14","traffic_today":"1440","updated_at":"2026-10-06T18:50:00Z","map_label":"3.5°\n↖ 1.9 m/s\n🚗 14 / 1440","has_traffic":true},"geometry":{"type":"Point","coordinates":[-20.8062,64.20182]}},{"type":"Feature","properties":{"id":"IRCA_MP_83","name":"Hamarsfjörður","temperature":"4.7","road_temperature":"6.8","wind_speed":"0.5","wind_gust":"1.2","wind_direction":"61","humidity":"85","traffic_recent":"5","traffic_today":"695","updated_at":"2026-10-06T18:50:00Z","map_label":"4.7°\n↗ 0.5 m/s\n🚗 5 / 695","has_traffic":true},"geometry":{"type":"Point","coordinates":[-14.452717,64.655815]}},{"type":"Feature","properties":{"id":"IRCA_MP_89","name":"Kambaskriður","temperature":"4.1","road_temperature":"5.4","wind_speed":"2.5","wind_gust":"3.9","wind_direction":"21","humidity":"84.6","traffic_recent":"2","traffic_today":"437","updated_at":"2026-10-06T18:50:00Z","map_label":"4.1°\n↑ 2.5 m/s\n🚗 2 / 437","has_traffic":true},"geometry":{"type":"Point","coordinates":[-13.890117,64.79815]}},{"type":"Feature","properties":{"id":"IRCA_MP_91","name":"Héðinsfjörður","temperature":"1.3","road_temperature":"2.3","wind_speed":"0.8","wind_gust":"1.8","wind_direction":"223","humidity":"75.5","traffic_recent":"3","traffic_today":"709","updated_at":"2026-10-06T18:50:00Z","map_label":"1.3°\n↙ 0.8 m/s\n🚗 3 / 709","has_traffic":true},"geometry":{"type":"Point","coordinates":[-18.81295,66.102234]}},{"type":"Feature","properties":{"id":"IRCA_MP_92","name":"Herkonugil","temperature":"4.6","road_temperature":"","wind_speed":"1.2","wind_gust":"2.2","wind_direction":"87","humidity":"72.2","traffic_recent":"","traffic_today":"","updated_at":"2026-10-06T18:50:00Z","map_label":"4.6°\n→ 1.2 m/s","has_traffic":false},"geometry":{"type":"Point","coordinates":[-18.9752,66.17837]}},{"type":"Feature","properties":{"id":"IRCA_MP_290","name":"Hof","temperature":"6.9","road_temperature":"","wind_speed":"3.6","wind_gust":"6.6","wind_direction":"85","humidity":"86.2","traffic_recent":"","traffic_today":"","updated_at":"2026-10-06T18:50:00Z","map_label":"6.9°\n→ 3.6 m/s","has_traffic":false},"geometry":{"type":"Point","coordinates":[-16.702066,63.897617]}},{"type":"Feature","properties":{"id":"IRCA_MP_291","name":"Hrútá","temperature":"4.9","road_temperature":"","wind_speed":"2.7","wind_gust":"3.9","wind_direction":"321","humidity":"100","traffic_recent":"","traffic_today":"","updated_at":"2026-10-06T18:50:00Z","map_label":"4.9°\n↖ 2.7 m/s","has_traffic":false},"geometry":{"type":"Point","coordinates":[-16.38645,63.993866]}},{"type":"Feature","properties":{"id":"IRCA_MP_93","name":"Bræðratunguvegur","temperature":"4.4","road_temperature":"5","wind_speed":"0","wind_gust":"0.3","wind_direction":"179","humidity":"76.5","traffic_recent":"7","traffic_today":"821","updated_at":"2026-10-06T18:50:00Z","map_label":"4.4°\n↓ 0 m/s\n🚗 7 / 821","has_traffic":true},"geometry":{"type":"Point","coordinates":[-20.36745,64.1575]}},{"type":"Feature","properties":{"id":"IRCA_MP_94","name":"Blikdalsá","temperature":"6.8","road_temperature":"","wind_speed":"0.3","wind_gust":"0.6","wind_direction":"69","humidity":"76","traffic_recent":"95","traffic_today":"9015","updated_at":"2026-10-06T18:50:00Z","map_label":"6.8°\n→ 0.3 m/s\n🚗 95 / 9015","has_traffic":true},"geometry":{"type":"Point","coordinates":[-21.832878,64.266396]}},{"type":"Feature","properties":{"id":"IRCA_MP_52","name":"Möðrudalsöræfi","temperature":"-1.8","road_temperature":"-0.3","wind_speed":"0.1","wind_gust":"0.7","wind_direction":"139","humidity":"79.9","traffic_recent":"9","traffic_today":"621","updated_at":"2026-10-06T18:50:00Z","map_label":"-1.8°\n↘ 0.1 m/s\n🚗 9 / 621","has_traffic":true},"geometry":{"type":"Point","coordinates":[-15.58565,65.457016]}},{"type":"Feature","properties":{"id":"IRCA_MP_84","name":"Hófaskarð","temperature":"0.8","road_temperature":"0.9","wind_speed":"3.6","wind_gust":"5.3","wind_direction":"93","humidity":"90.8","traffic_recent":"2","traffic_today":"74","updated_at":"2026-10-06T18:50:00Z","map_label":"0.8°\n→ 3.6 m/s\n🚗 2 / 74","has_traffic":true},"geometry":{"type":"Point","coordinates":[-15.893267,66.29843]}},{"type":"Feature","properties":{"id":"IRCA_MP_90","name":"Ólafsfjarðarmúli","temperature":"5.2","road_temperature":"3.2","wind_speed":"1.9","wind_gust":"2.5","wind_direction":"202","humidity":"61.3","traffic_recent":"3","traffic_today":"571","updated_at":"2026-10-06T18:50:00Z","map_label":"5.2°\n↓ 1.9 m/s\n🚗 3 / 571","has_traffic":true},"geometry":{"type":"Point","coordinates":[-18.52075,66.04235]}},{"type":"Feature","properties":{"id":"IRCA_MP_5","name":"Steingrímsfjarðarheiði","temperature":"2.1","road_temperature":"4.6","wind_speed":"0.5","wind_gust":"1.1","wind_direction":"44","humidity":"93","traffic_recent":"2","traffic_today":"118","updated_at":"2026-10-06T18:50:00Z","map_label":"2.1°\n↗ 0.5 m/s\n🚗 2 / 118","has_traffic":true},"geometry":{"type":"Point","coordinates":[-22.12995,65.75105]}},{"type":"Feature","properties":{"id":"IRCA_MP_31","name":"Þrengsli","temperature":"2.3","road_temperature":"5","wind_speed":"0.6","wind_gust":"1.2","wind_direction":"30","humidity":"88.5","traffic_recent":"18","traffic_today":"2112","updated_at":"2026-10-06T18:50:00Z","map_label":"2.3°\n↗ 0.6 m/s\n🚗 18 / 2112","has_traffic":true},"geometry":{"type":"Point","coordinates":[-21.4629,63.987633]}},{"type":"Feature","properties":{"id":"IRCA_MP_80","name":"Þröskuldar","temperature":"2.6","road_temperature":"1","wind_speed":"2.7","wind_gust":"3.2","wind_direction":"222","humidity":"83.7","traffic_recent":"5","traffic_today":"207","updated_at":"2026-10-06T18:50:00Z","map_label":"2.6°\n↙ 2.7 m/s\n🚗 5 / 207","has_traffic":true},"geometry":{"type":"Point","coordinates":[-21.833017,65.552414]}},{"type":"Feature","properties":{"id":"IRCA_MP_95","name":"Mosfellsheiði","temperature":"3.5","road_temperature":"","wind_speed":"0.1","wind_gust":"0.9","wind_direction":"235","humidity":"82","traffic_recent":"13","traffic_today":"1100","updated_at":"2026-10-06T18:50:00Z","map_label":"3.5°\n↙ 0.1 m/s\n🚗 13 / 1100","has_traffic":true},"geometry":{"type":"Point","coordinates":[-21.344767,64.214035]}},{"type":"Feature","properties":{"id":"IRCA_MP_98","name":"Vopnafjarðarheiði","temperature":"-0.6","road_temperature":"0.6","wind_speed":"1.3","wind_gust":"1.7","wind_direction":"154","humidity":"87","traffic_recent":"1","traffic_today":"90","updated_at":"2026-10-06T18:50:00Z","map_label":"-0.6°\n↘ 1.3 m/s\n🚗 1 / 90","has_traffic":true},"geometry":{"type":"Point","coordinates":[-15.315783,65.59465]}},{"type":"Feature","properties":{"id":"IRCA_MP_99","name":"Fljótsheiði","temperature":"-0.5","road_temperature":"3.1","wind_speed":"3.9","wind_gust":"4.6","wind_direction":"115","humidity":"83.1","traffic_recent":"13","traffic_today":"1040","updated_at":"2026-10-06T18:50:00Z","map_label":"-0.5°\n↘ 3.9 m/s\n🚗 13 / 1040","has_traffic":true},"geometry":{"type":"Point","coordinates":[-17.503233,65.697014]}},{"type":"Feature","properties":{"id":"IRCA_MP_42","name":"Við Lómagnúp","temperature":"6","road_temperature":"8.8","wind_speed":"0.8","wind_gust":"1.2","wind_direction":"268","humidity":"92.2","traffic_recent":"19","traffic_today":"1855","updated_at":"2026-10-06T18:50:00Z","map_label":"6°\n← 0.8 m/s\n🚗 19 / 1855","has_traffic":true},"geometry":{"type":"Point","coordinates":[-17.55,63.957417]}},{"type":"Feature","properties":{"id":"IRCA_MP_293","name":"Skaftafellsá","temperature":"3.1","road_temperature":"","wind_speed":"1.2","wind_gust":"2.6","wind_direction":"33","humidity":"85.5","traffic_recent":"","traffic_today":"","updated_at":"2026-10-06T18:50:00Z","map_label":"3.1°\n↗ 1.2 m/s","has_traffic":false},"geometry":{"type":"Point","coordinates":[-16.91955,64.00243]}},{"type":"Feature","properties":{"id":"IRCA_MP_129","name":"Papey","temperature":"4.6","road_temperature":"","wind_speed":"3.2","wind_gust":"4.5","wind_direction":"13","humidity":"84","traffic_recent":"","traffic_today":"","updated_at":"2026-10-06T18:30:00Z","map_label":"4.6°\n↑ 3.2 m/s","has_traffic":false},"geometry":{"type":"Point","coordinates":[-14.174683,64.59115]}},{"type":"Feature","properties":{"id":"IRCA_MP_136","name":"Skagatá","temperature":"4","road_temperature":"","wind_speed":"3.2","wind_gust":"3.4","wind_direction":"199","humidity":"76.3","traffic_recent":"","traffic_today":"","updated_at":"2026-10-06T18:50:00Z","map_label":"4°\n↓ 3.2 m/s","has_traffic":false},"geometry":{"type":"Point","coordinates":[-20.098867,66.11922]}},{"type":"Feature","properties":{"id":"IRCA_MP_112","name":"Bjarnarey","temperature":"4.9","road_temperature":"","wind_speed":"4.3","wind_gust":"5.5","wind_direction":"136","humidity":"74.8","traffic_recent":"","traffic_today":"","updated_at":"2026-10-06T18:30:00Z","map_label":"4.9°\n↘ 4.3 m/s","has_traffic":false},"geometry":{"type":"Point","coordinates":[-14.309059,65.785126]}},{"type":"Feature","properties":{"id":"IRCA_MP_132","name":"Seley","temperature":"4.6","road_temperature":"","wind_speed":"2.6","wind_gust":"3.7","wind_direction":"20","humidity":"73.1","traffic_recent":"","traffic_today":"","updated_at":"2026-10-06T18:50:00Z","map_label":"4.6°\n↑ 2.6 m/s","has_traffic":false},"geometry":{"type":"Point","coordinates":[-13.51925,64.97781]}},{"type":"Feature","properties":{"id":"IRCA_MP_139","name":"Straumnesviti","temperature":"7.9","road_temperature":"","wind_speed":"3","wind_gust":"4.8","wind_direction":"152","humidity":"65.6","traffic_recent":"","traffic_today":"","updated_at":"2026-10-06T18:50:00Z","map_label":"7.9°\n↘ 3 m/s","has_traffic":false},"geometry":{"type":"Point","coordinates":[-23.13453,66.43051]}},{"type":"Feature","properties":{"id":"IRCA_MP_115","name":"Flatey á Skjálfanda","temperature":"5.7","road_temperature":"","wind_speed":"7.2","wind_gust":"8.4","wind_direction":"178","humidity":"71","traffic_recent":"","traffic_today":"","updated_at":"2026-10-06T18:30:00Z","map_label":"5.7°\n↓ 7.2 m/s","has_traffic":false},"geometry":{"type":"Point","coordinates":[-17.840782,66.16315]}},{"type":"Feature","properties":{"id":"IRCA_MP_117","name":"Garðskagaviti","temperature":"4.6","road_temperature":"","wind_speed":"3","wind_gust":"3.3","wind_direction":"177","humidity":"76.2","traffic_recent":"","traffic_today":"","updated_at":"2026-10-06T18:50:00Z","map_label":"4.6°\n↓ 3 m/s","has_traffic":false},"geometry":{"type":"Point","coordinates":[-22.689318,64.08172]}},{"type":"Feature","properties":{"id":"IRCA_MP_111","name":"Bjargtangar","temperature":"7.5","road_temperature":"","wind_speed":"5.7","wind_gust":"10.6","wind_direction":"188","humidity":"82.1","traffic_recent":"","traffic_today":"","updated_at":"2026-10-06T18:50:00Z","map_label":"7.5°\n↓ 5.7 m/s","has_traffic":false},"geometry":{"type":"Point","coordinates":[-24.531166,65.5029]}},{"type":"Feature","properties":{"id":"IRCA_MP_122","name":"Hornbjargsviti","temperature":"7","road_temperature":"","wind_speed":"0.9","wind_gust":"1.9","wind_direction":"135","humidity":"83.6","traffic_recent":"","traffic_today":"","updated_at":"2026-10-06T18:30:00Z","map_label":"7°\n↘ 0.9 m/s","has_traffic":false},"geometry":{"type":"Point","coordinates":[-22.3789,66.41065]}},{"type":"Feature","properties":{"id":"IRCA_MP_179","name":"Ingólfshöfði","temperature":"6.2","road_temperature":"","wind_speed":"9.9","wind_gust":"13.7","wind_direction":"59","humidity":"85.4","traffic_recent":"","traffic_today":"","updated_at":"2026-10-06T18:10:00Z","map_label":"6.2°\n↗ 9.9 m/s","has_traffic":false},"geometry":{"type":"Point","coordinates":[-16.63715,63.801716]}},{"type":"Feature","properties":{"id":"IRCA_MP_134","name":"Skarðsfjöruviti","temperature":"7.3","road_temperature":"","wind_speed":"8.7","wind_gust":"10.8","wind_direction":"82","humidity":"88.6","traffic_recent":"","traffic_today":"","updated_at":"2026-10-06T18:40:00Z","map_label":"7.3°\n→ 8.7 m/s","has_traffic":false},"geometry":{"type":"Point","coordinates":[-17.978518,63.517868]}},{"type":"Feature","properties":{"id":"IRCA_MP_3","name":"Holtavörðuheiði","temperature":"1.8","road_temperature":"3.2","wind_speed":"4.9","wind_gust":"6.4","wind_direction":"192","humidity":"82.8","traffic_recent":"20","traffic_today":"944","updated_at":"2026-10-06T18:50:00Z","map_label":"1.8°\n↓ 4.9 m/s\n🚗 20 / 944","has_traffic":true},"geometry":{"type":"Point","coordinates":[-21.058508,64.99037]}},{"type":"Feature","properties":{"id":"IRCA_MP_101","name":"Festarfjall","temperature":"6.1","road_temperature":"8.3","wind_speed":"1.8","wind_gust":"2.4","wind_direction":"100","humidity":"94.2","traffic_recent":"14","traffic_today":"851","updated_at":"2026-10-06T18:50:00Z","map_label":"6.1°\n→ 1.8 m/s\n🚗 14 / 851","has_traffic":true},"geometry":{"type":"Point","coordinates":[-22.343582,63.85948]}},{"type":"Feature","properties":{"id":"IRCA_MP_17","name":"Sandskeið","temperature":"0.7","road_temperature":"4.2","wind_speed":"0.6","wind_gust":"1.3","wind_direction":"313","humidity":"85.2","traffic_recent":"","traffic_today":"","updated_at":"2026-10-06T18:50:00Z","map_label":"0.7°\n↖ 0.6 m/s","has_traffic":false},"geometry":{"type":"Point","coordinates":[-21.557644,64.06243]}},{"type":"Feature","properties":{"id":"IRCA_MP_36","name":"Kjalarnes","temperature":"5.5","road_temperature":"6","wind_speed":"2","wind_gust":"2.6","wind_direction":"110","humidity":"78","traffic_recent":"109","traffic_today":"9793","updated_at":"2026-10-06T18:50:00Z","map_label":"5.5°\n→ 2 m/s\n🚗 109 / 9793","has_traffic":true},"geometry":{"type":"Point","coordinates":[-21.76662,64.21066]}},{"type":"Feature","properties":{"id":"IRCA_MP_85","name":"Stórholt","temperature":"5.9","road_temperature":"5.4","wind_speed":"3.8","wind_gust":"6.5","wind_direction":"144","humidity":"58.2","traffic_recent":"10","traffic_today":"708","updated_at":"2026-10-06T18:50:00Z","map_label":"5.9°\n↘ 3.8 m/s\n🚗 10 / 708","has_traffic":true},"geometry":{"type":"Point","coordinates":[-22.808384,64.986]}},{"type":"Feature","properties":{"id":"IRCA_MP_45","name":"Mývatnsheiði","temperature":"0.1","road_temperature":"1.9","wind_speed":"2.9","wind_gust":"3.4","wind_direction":"140","humidity":"72","traffic_recent":"9","traffic_today":"713","updated_at":"2026-10-06T18:50:00Z","map_label":"0.1°\n↘ 2.9 m/s\n🚗 9 / 713","has_traffic":true},"geometry":{"type":"Point","coordinates":[-17.2169,65.61428]}},{"type":"Feature","properties":{"id":"IRCA_MP_49","name":"Vatnsskarð eystra","temperature":"-0.2","road_temperature":"-1.8","wind_speed":"2.8","wind_gust":"3.8","wind_direction":"99","humidity":"95.8","traffic_recent":"1","traffic_today":"127","updated_at":"2026-10-06T18:50:00Z","map_label":"-0.2°\n→ 2.8 m/s\n🚗 1 / 127","has_traffic":true},"geometry":{"type":"Point","coordinates":[-13.9896,65.56232]}},{"type":"Feature","properties":{"id":"IRCA_MP_292","name":"Reynivellir","temperature":"6.2","road_temperature":"","wind_speed":"1.8","wind_gust":"4.1","wind_direction":"74","humidity":"84.9","traffic_recent":"","traffic_today":"","updated_at":"2026-10-06T18:50:00Z","map_label":"6.2°\n→ 1.8 m/s","has_traffic":false},"geometry":{"type":"Point","coordinates":[-16.068817,64.125534]}},{"type":"Feature","properties":{"id":"IRCA_MP_110","name":"Græfur","temperature":"-0.1","road_temperature":"3.1","wind_speed":"2.7","wind_gust":"3.3","wind_direction":"190","humidity":"78.3","traffic_recent":"","traffic_today":"","updated_at":"2026-10-06T18:50:00Z","map_label":"-0.1°\n↓ 2.7 m/s","has_traffic":false},"geometry":{"type":"Point","coordinates":[-14.33895,65.16817]}},{"type":"Feature","properties":{"id":"IRCA_MP_113","name":"Kauptún","temperature":"3.1","road_temperature":"","wind_speed":"1.7","wind_gust":"2.6","wind_direction":"118","humidity":"80.8","traffic_recent":"","traffic_today":"","updated_at":"2026-10-06T18:50:00Z","map_label":"3.1°\n↘ 1.7 m/s","has_traffic":false},"geometry":{"type":"Point","coordinates":[-21.902866,64.07965]}},{"type":"Feature","properties":{"id":"IRCA_MP_114","name":"Víkurgerði","temperature":"1.2","road_temperature":"3.4","wind_speed":"2.2","wind_gust":"3.2","wind_direction":"201","humidity":"95.1","traffic_recent":"","traffic_today":"","updated_at":"2026-10-06T18:50:00Z","map_label":"1.2°\n↓ 2.2 m/s","has_traffic":false},"geometry":{"type":"Point","coordinates":[-13.854695,64.895615]}}]}